unique_serial_number,State,City,pincode,latitude,longitude,Online_Shopping,Linear_Television,Smart_Television,Internet_Users,Smart_Phone_Users,Social_Media_Users,Digital_Payment,Credit_Card,Netbanking,Insurance,Stocks_Shares,Mutual_Funds,Loan,Electricity_Connection,Ceiling_Fan,LPG_Stove,Two_wheeler,Colour_TV,Refrigerator,Washing_Machine,Personal_Computer_Laptop,Car_Jeep_Van,Air_Conditioner
1,Maharashtra,Mumbai,400004,19.076,72.8777,1,0,1,1,0,1,0,0,0,0,0,1,0,0,0,1,0,0,1,0,0,0,1
2,Maharashtra,Thane,400601,19.2183,72.9781,1,0,0,1,0,1,0,0,0,1,1,0,1,0,0,1,1,1,1,1,0,1,1
3,Maharashtra,Mumbai,400004,19.076,72.8777,1,1,0,1,1,1,0,1,0,0,1,0,1,0,1,1,0,0,1,0,0,0,1
4,Maharashtra,Nashik,422002,20.011,73.7903,1,0,1,0,0,0,1,0,0,0,0,1,1,0,1,1,0,0,1,0,0,1,1
5,Maharashtra,Thane,400604,19.2183,72.9781,1,0,1,0,1,0,0,0,0,1,0,1,1,0,1,1,1,0,0,0,1,0,1
6,Maharashtra,Thane,400604,19.2183,72.9781,1,0,1,0,0,1,1,0,0,1,0,1,0,0,0,0,0,0,0,1,0,0,0
7,Maharashtra,Pune,411003,18.5204,73.8567,1,0,0,0,1,0,0,0,1,0,0,1,1,0,1,1,0,1,1,1,0,1,1
8,Maharashtra,Nagpur,440003,21.1458,79.0882,0,0,0,0,1,1,0,1,0,0,1,0,0,0,0,0,1,1,1,0,0,0,1
9,Maharashtra,Pune,411005,18.5204,73.8567,0,1,1,1,1,1,1,1,0,0,0,0,1,0,1,0,0,0,1,0,0,0,1
10,Maharashtra,Thane,400602,19.2183,72.9781,1,0,0,0,0,0,1,1,1,1,1,0,1,0,0,1,1,1,0,1,0,0,1
11,Maharashtra,Nashik,422004,20.011,73.7903,1,0,0,0,1,1,0,1,1,1,0,0,0,0,0,0,1,1,1,0,1,1,1
12,Maharashtra,Mumbai,400004,19.076,72.8777,0,0,1,0,0,1,0,1,0,1,1,1,1,0,1,1,0,0,0,1,1,1,1
13,Maharashtra,Thane,400603,19.2183,72.9781,0,0,1,1,1,1,1,0,0,0,1,0,1,1,1,1,1,0,1,1,0,1,1
14,Maharashtra,Pune,411001,18.5204,73.8567,0,0,0,0,0,0,0,0,1,1,0,1,1,1,1,1,0,0,1,0,0,0,1
15,Maharashtra,Nagpur,440002,21.1458,79.0882,1,1,1,1,0,0,1,1,0,1,1,1,1,1,0,0,0,0,1,1,1,1,1
16,Maharashtra,Nagpur,440003,21.1458,79.0882,0,1,1,1,0,0,0,0,0,0,1,0,1,0,0,1,0,1,1,1,1,0,0
17,Maharashtra,Nagpur,440004,21.1458,79.0882,1,0,0,0,1,0,1,0,0,1,0,0,0,1,1,0,1,0,1,0,1,1,0
18,Maharashtra,Thane,400601,19.2183,72.9781,1,0,0,1,0,0,1,0,1,0,1,0,0,1,0,0,1,1,1,1,0,1,1
19,Maharashtra,Nagpur,440001,21.1458,79.0882,0,0,1,1,0,1,1,1,0,0,0,0,1,0,0,1,0,0,0,0,0,0,0
20,Maharashtra,Thane,400603,19.2183,72.9781,1,0,1,0,0,0,1,1,0,0,0,1,0,0,0,0,0,1,1,1,1,1,1
21,Maharashtra,Thane,400605,19.2183,72.9781,0,1,0,1,0,0,0,1,1,1,0,0,1,1,1,0,1,1,1,0,0,1,0
22,Maharashtra,Nagpur,440002,21.1458,79.0882,0,0,0,1,0,1,0,0,0,1,0,0,1,0,0,0,0,1,1,1,0,0,0
23,Maharashtra,Pune,411003,18.5204,73.8567,0,1,0,1,1,0,0,0,0,1,1,0,1,1,1,1,0,0,1,1,1,1,0
24,Maharashtra,Pune,411003,18.5204,73.8567,1,0,0,0,1,0,1,0,0,1,0,0,1,1,1,0,1,1,1,1,0,1,1
25,Maharashtra,Nashik,422005,20.011,73.7903,0,0,1,1,0,1,0,0,1,1,0,1,0,1,0,1,1,1,0,0,0,1,0
26,Maharashtra,Nashik,422005,20.011,73.7903,1,1,0,0,1,0,1,0,0,0,0,0,0,0,0,1,1,0,0,0,0,0,1
27,Maharashtra,Pune,411004,18.5204,73.8567,1,1,1,0,1,0,1,0,0,0,0,1,1,0,0,0,0,1,1,0,1,0,0
28,Maharashtra,Pune,411001,18.5204,73.8567,0,0,1,1,0,0,1,0,0,0,1,1,0,1,0,0,1,1,1,0,1,0,0
29,Maharashtra,Nashik,422003,20.011,73.7903,1,1,0,1,0,1,1,1,1,0,1,1,0,1,1,0,1,0,0,0,0,0,0
30,Maharashtra,Nashik,422005,20.011,73.7903,0,1,1,1,1,1,0,0,1,0,1,0,1,1,0,0,1,1,0,1,1,0,1
31,Maharashtra,Nashik,422004,20.011,73.7903,1,0,1,1,0,0,1,1,1,1,0,1,1,1,1,1,1,0,0,0,0,0,1
32,Maharashtra,Mumbai,400002,19.076,72.8777,1,0,1,1,0,1,0,1,0,1,1,1,0,0,1,1,1,1,0,1,0,0,1
33,Maharashtra,Nashik,422004,20.011,73.7903,1,0,0,1,1,1,0,0,1,1,0,0,1,0,0,0,1,1,0,1,1,1,0
34,Maharashtra,Mumbai,400002,19.076,72.8777,0,1,1,1,0,1,1,0,0,0,0,0,1,0,1,0,0,0,1,1,1,0,1
35,Maharashtra,Thane,400603,19.2183,72.9781,1,0,0,0,1,1,1,0,0,0,0,0,0,0,1,1,0,1,1,0,0,0,0
36,Maharashtra,Nashik,422005,20.011,73.7903,1,0,1,0,1,1,0,0,1,0,0,0,0,1,1,0,1,0,1,0,0,0,1
37,Maharashtra,Thane,400602,19.2183,72.9781,0,1,1,0,0,0,0,1,0,0,1,1,1,1,1,0,1,1,0,1,0,0,0
38,Maharashtra,Thane,400604,19.2183,72.9781,0,0,0,0,1,0,1,1,0,0,0,1,0,0,1,1,0,0,1,1,0,0,1
39,Maharashtra,Nagpur,440005,21.1458,79.0882,1,1,0,1,1,0,1,0,0,1,0,0,0,1,1,1,0,0,1,1,0,0,1
40,Maharashtra,Mumbai,400005,19.076,72.8777,0,1,1,1,0,0,0,1,0,1,1,1,0,1,1,0,1,0,1,0,1,1,0
41,Maharashtra,Mumbai,400005,19.076,72.8777,0,0,0,0,0,0,0,1,1,0,0,0,0,1,0,0,1,1,0,1,0,1,1
42,Maharashtra,Nashik,422004,20.011,73.7903,0,1,1,1,0,0,0,1,1,1,1,0,0,1,0,0,1,0,1,0,1,0,0
43,Maharashtra,Nagpur,440001,21.1458,79.0882,1,0,1,0,0,0,0,0,1,1,0,1,1,1,1,1,1,1,0,1,0,1,1
44,Maharashtra,Pune,411003,18.5204,73.8567,1,1,1,1,1,1,1,1,1,0,1,0,0,0,1,1,1,0,0,0,1,0,1
45,Maharashtra,Nashik,422001,20.011,73.7903,0,0,0,0,0,1,0,0,0,1,0,0,1,1,0,0,1,0,0,0,1,1,0
46,Maharashtra,Mumbai,400005,19.076,72.8777,1,0,1,0,0,0,1,0,0,0,1,0,1,1,1,0,0,1,0,0,1,0,1
47,Maharashtra,Mumbai,400005,19.076,72.8777,1,1,0,1,1,0,0,0,1,0,1,0,1,0,1,1,0,1,0,0,0,0,1
48,Maharashtra,Nashik,422002,20.011,73.7903,0,0,1,1,1,1,1,1,0,1,1,0,0,1,1,0,0,0,0,0,0,1,0
49,Maharashtra,Pune,411001,18.5204,73.8567,0,0,0,1,1,1,1,0,1,1,0,0,1,1,0,0,0,1,1,1,0,1,1
50,Maharashtra,Nagpur,440004,21.1458,79.0882,0,0,1,1,0,1,1,0,0,1,1,0,0,0,1,1,1,0,0,0,0,1,0
51,Maharashtra,Nagpur,440003,21.1458,79.0882,1,1,0,1,1,0,0,1,0,1,1,1,1,0,0,0,0,1,0,1,1,0,1
52,Maharashtra,Nashik,422005,20.011,73.7903,1,0,1,0,1,0,1,0,1,0,1,0,0,0,0,0,0,0,1,0,1,1,1
53,Maharashtra,Pune,411002,18.5204,73.8567,1,1,1,0,1,0,1,0,0,1,0,0,1,0,1,0,0,0,1,0,1,1,1
54,Maharashtra,Pune,411005,18.5204,73.8567,1,0,1,0,0,1,1,0,0,1,0,0,1,1,0,0,0,1,1,1,1,0,1
55,Maharashtra,Mumbai,400001,19.076,72.8777,1,0,1,1,1,1,0,0,0,0,0,0,0,0,1,0,1,1,0,1,0,0,0
56,Maharashtra,Nashik,422003,20.011,73.7903,0,0,0,0,0,0,1,0,0,1,0,1,1,0,0,0,1,0,1,0,1,1,0
57,Maharashtra,Nashik,422004,20.011,73.7903,0,1,1,1,1,1,0,1,1,1,1,0,0,0,0,1,1,1,1,1,1,0,1
58,Maharashtra,Pune,411002,18.5204,73.8567,0,1,0,1,1,1,1,1,1,1,1,0,1,0,1,1,0,0,1,1,0,1,1
59,Maharashtra,Mumbai,400001,19.076,72.8777,0,0,1,1,1,1,1,1,0,1,0,1,1,0,1,0,1,0,0,0,0,0,0
60,Maharashtra,Nagpur,440005,21.1458,79.0882,0,0,0,1,1,0,0,0,0,1,0,1,0,1,0,0,1,1,1,1,1,0,1
61,Maharashtra,Nagpur,440003,21.1458,79.0882,0,1,0,0,1,0,1,0,0,0,1,0,0,0,0,1,0,1,1,1,0,0,0
62,Maharashtra,Nashik,422002,20.011,73.7903,0,0,1,0,0,1,0,1,1,0,1,1,0,1,0,1,0,0,0,0,1,1,0
63,Maharashtra,Nashik,422003,20.011,73.7903,1,0,1,1,1,0,0,0,0,0,0,1,1,0,0,0,0,0,0,1,0,0,1
64,Maharashtra,Thane,400602,19.2183,72.9781,1,0,1,1,0,1,1,1,0,0,0,1,0,1,0,0,1,1,1,0,1,0,0
65,Maharashtra,Thane,400602,19.2183,72.9781,0,0,1,1,0,1,0,1,1,1,1,1,1,0,0,1,1,0,0,0,0,1,1
66,Maharashtra,Thane,400603,19.2183,72.9781,1,1,1,0,0,0,0,1,1,0,1,1,0,0,1,1,1,0,0,1,0,0,0
67,Maharashtra,Pune,411004,18.5204,73.8567,0,1,1,1,0,0,1,0,1,1,0,1,1,0,0,0,0,0,0,1,1,0,1
68,Maharashtra,Nagpur,440005,21.1458,79.0882,1,0,1,0,0,1,0,0,1,1,1,0,1,0,0,0,1,1,1,1,0,1,1
69,Maharashtra,Thane,400602,19.2183,72.9781,1,1,1,1,1,1,1,1,0,1,0,1,1,1,1,0,1,1,1,1,0,0,1
70,Maharashtra,Thane,400603,19.2183,72.9781,0,0,0,0,0,1,0,1,1,1,1,1,1,1,1,0,0,1,1,1,1,1,1
71,Maharashtra,Nashik,422002,20.011,73.7903,0,0,0,0,1,1,1,0,0,0,1,1,0,0,0,1,0,0,1,1,0,0,0
72,Maharashtra,Pune,411003,18.5204,73.8567,1,0,1,0,1,0,1,0,0,1,1,1,1,1,1,0,0,0,1,1,1,1,0
73,Maharashtra,Mumbai,400004,19.076,72.8777,1,1,0,0,1,1,1,0,1,1,1,0,1,1,1,1,0,1,0,0,1,1,0
74,Maharashtra,Nagpur,440005,21.1458,79.0882,0,0,0,1,1,1,0,0,0,1,1,1,1,1,0,1,1,0,0,0,0,0,1
75,Maharashtra,Thane,400605,19.2183,72.9781,1,0,0,1,0,1,1,0,1,0,0,0,1,0,0,1,0,0,1,0,1,0,0
76,Maharashtra,Mumbai,400001,19.076,72.8777,1,1,0,0,0,0,0,0,0,0,0,1,1,1,0,0,0,0,0,1,1,0,1
77,Maharashtra,Thane,400603,19.2183,72.9781,0,1,1,0,1,0,0,1,0,1,0,1,0,1,0,0,1,1,0,1,0,0,1
78,Maharashtra,Thane,400604,19.2183,72.9781,0,1,0,1,1,0,0,0,1,1,0,1,1,1,1,0,0,0,1,0,0,0,1
79,Maharashtra,Nagpur,440002,21.1458,79.0882,0,1,0,1,0,1,1,0,0,1,1,0,0,0,1,0,0,1,0,0,0,1,1
80,Maharashtra,Nashik,422001,20.011,73.7903,0,1,0,1,1,0,1,0,1,1,1,0,1,0,1,0,0,0,1,1,0,1,1
81,Maharashtra,Pune,411001,18.5204,73.8567,1,1,1,1,0,0,0,0,1,1,1,1,0,1,1,1,0,1,1,1,1,1,1
82,Maharashtra,Nashik,422004,20.011,73.7903,0,1,0,0,1,0,0,1,1,0,0,0,0,1,1,0,1,1,1,0,0,0,0
83,Maharashtra,Nagpur,440001,21.1458,79.0882,1,0,0,0,1,1,1,1,0,0,0,0,1,1,1,1,0,0,1,0,1,1,1
84,Maharashtra,Nagpur,440005,21.1458,79.0882,0,1,1,1,1,1,0,0,0,1,0,1,1,1,0,1,0,0,1,0,0,1,0
85,Maharashtra,Pune,411002,18.5204,73.8567,0,1,1,0,0,1,1,0,0,1,1,1,0,0,0,1,0,0,1,0,1,1,0
86,Maharashtra,Pune,411001,18.5204,73.8567,1,1,0,1,0,0,1,1,1,1,0,1,0,1,0,1,1,0,1,1,0,0,0
87,Maharashtra,Nagpur,440002,21.1458,79.0882,0,1,1,0,0,1,0,0,0,1,0,0,1,1,0,0,0,0,1,0,0,1,1
88,Maharashtra,Nashik,422001,20.011,73.7903,0,0,1,0,1,0,1,1,0,1,1,1,1,1,0,1,0,0,0,0,0,1,0
89,Maharashtra,Mumbai,400003,19.076,72.8777,1,0,1,0,1,1,0,1,1,0,0,0,1,1,1,0,0,1,1,1,1,1,0
90,Maharashtra,Mumbai,400005,19.076,72.8777,0,1,1,1,0,1,0,1,0,0,0,0,0,1,0,1,0,1,1,0,1,0,0
91,Maharashtra,Mumbai,400005,19.076,72.8777,1,0,1,1,1,1,0,1,1,1,1,1,1,0,0,1,1,1,1,0,0,0,0
92,Maharashtra,Pune,411004,18.5204,73.8567,1,0,1,1,1,0,0,1,0,1,1,0,1,0,1,1,1,0,1,0,0,1,0
93,Maharashtra,Mumbai,400001,19.076,72.8777,1,0,1,1,0,1,1,1,0,0,0,0,0,1,1,0,0,0,0,1,0,0,1
94,Maharashtra,Pune,411001,18.5204,73.8567,0,0,1,1,0,0,1,1,1,1,0,0,0,0,1,1,1,0,1,1,1,1,0
95,Maharashtra,Nagpur,440003,21.1458,79.0882,0,1,1,1,0,1,0,1,1,0,1,0,0,0,1,0,0,0,0,1,1,0,1
96,Maharashtra,Mumbai,400004,19.076,72.8777,0,0,0,1,1,1,1,1,1,0,0,1,0,1,0,0,0,0,0,0,0,1,1
97,Maharashtra,Mumbai,400001,19.076,72.8777,1,0,1,1,0,1,1,1,0,0,1,0,1,0,0,0,1,0,0,0,1,0,1
98,Maharashtra,Thane,400602,19.2183,72.9781,0,1,0,1,0,1,1,1,1,1,0,1,0,0,1,0,0,0,1,1,0,0,1
99,Maharashtra,Thane,400601,19.2183,72.9781,1,1,0,0,1,0,1,0,0,1,0,0,1,1,0,1,0,1,0,0,1,1,0
100,Maharashtra,Thane,400601,19.2183,72.9781,0,0,0,1,0,0,0,0,0,1,0,0,1,0,0,1,0,1,0,1,1,1,1
101,Uttar Pradesh,Lucknow,226003,26.8467,80.9462,0,0,1,0,0,1,1,0,1,1,0,0,0,1,0,0,1,0,0,0,1,1,1
102,Uttar Pradesh,Ghaziabad,201001,28.6692,77.4538,0,0,1,0,0,0,1,0,1,1,1,1,1,1,0,0,0,0,0,0,1,1,0
103,Uttar Pradesh,Lucknow,226004,26.8467,80.9462,1,0,0,0,1,1,0,1,1,0,1,0,0,0,0,0,0,0,1,1,0,1,0
104,Uttar Pradesh,Agra,282001,27.1767,78.0081,1,1,1,1,1,0,0,1,0,0,0,0,1,0,1,0,0,1,0,1,1,1,0
105,Uttar Pradesh,Lucknow,226003,26.8467,80.9462,1,1,0,0,0,0,1,0,0,1,0,1,0,0,0,1,1,0,1,0,1,0,0
106,Uttar Pradesh,Kanpur,208002,26.4499,80.3319,0,0,0,1,0,0,1,0,1,0,0,0,1,0,0,0,0,1,1,1,0,0,0
107,Uttar Pradesh,Agra,282003,27.1767,78.0081,0,1,0,1,1,0,0,0,1,0,0,0,1,0,1,1,1,0,0,1,0,0,0
108,Uttar Pradesh,Meerut,250001,28.9845,77.7064,1,1,0,0,1,0,1,0,0,0,1,1,0,0,1,0,1,0,1,1,1,1,0
109,Uttar Pradesh,Lucknow,226005,26.8467,80.9462,1,1,1,0,0,1,1,0,0,0,1,0,1,0,1,0,0,1,1,1,1,1,1
110,Uttar Pradesh,Agra,282005,27.1767,78.0081,0,0,0,0,0,1,1,0,0,0,0,1,0,1,1,1,1,0,1,0,0,0,1
111,Uttar Pradesh,Meerut,250005,28.9845,77.7064,0,0,1,1,0,0,1,0,0,0,1,0,1,0,1,0,1,0,0,0,0,0,1
112,Uttar Pradesh,Meerut,250003,28.9845,77.7064,0,1,0,1,0,0,1,0,0,1,1,1,1,1,0,0,1,1,1,0,1,0,0
113,Uttar Pradesh,Ghaziabad,201004,28.6692,77.4538,0,1,0,0,0,0,1,1,1,1,1,0,1,1,1,0,0,0,1,0,0,0,1
114,Uttar Pradesh,Kanpur,208002,26.4499,80.3319,0,0,0,0,1,0,1,1,0,0,0,0,1,1,1,1,0,0,1,0,1,0,1
115,Uttar Pradesh,Meerut,250005,28.9845,77.7064,0,1,1,1,0,0,1,0,0,1,1,1,1,1,1,1,1,1,1,0,0,0,0
116,Uttar Pradesh,Meerut,250002,28.9845,77.7064,1,1,1,0,1,0,0,1,1,0,1,0,0,1,1,0,0,0,0,1,1,1,0
117,Uttar Pradesh,Ghaziabad,201005,28.6692,77.4538,0,0,1,1,0,0,1,1,0,0,0,0,0,0,1,1,0,0,0,0,1,1,1
118,Uttar Pradesh,Meerut,250001,28.9845,77.7064,0,0,0,1,0,0,1,0,1,1,0,1,1,1,0,1,0,0,1,0,0,0,0
119,Uttar Pradesh,Ghaziabad,201003,28.6692,77.4538,1,0,0,0,0,1,0,0,0,1,0,1,1,1,0,0,0,1,1,1,0,1,0
120,Uttar Pradesh,Kanpur,208002,26.4499,80.3319,1,1,1,0,1,0,0,1,1,1,1,0,1,1,1,0,1,1,0,1,1,0,0
121,Uttar Pradesh,Agra,282001,27.1767,78.0081,0,0,1,0,1,1,1,1,1,0,0,0,1,1,1,1,1,0,1,0,1,1,0
122,Uttar Pradesh,Meerut,250001,28.9845,77.7064,0,0,0,1,1,1,0,0,1,0,1,1,0,0,1,0,1,1,1,1,1,1,0
123,Uttar Pradesh,Meerut,250005,28.9845,77.7064,0,1,0,1,1,0,0,0,1,1,1,0,1,1,0,1,0,1,1,1,1,0,0
124,Uttar Pradesh,Lucknow,226005,26.8467,80.9462,0,0,0,1,0,1,1,0,0,0,1,0,1,0,0,1,1,0,1,1,0,0,1
125,Uttar Pradesh,Lucknow,226005,26.8467,80.9462,1,0,0,0,0,0,0,1,1,0,1,0,1,0,1,0,0,0,1,0,0,1,1
126,Uttar Pradesh,Ghaziabad,201001,28.6692,77.4538,0,0,1,0,1,1,1,1,0,1,0,0,1,1,1,1,0,1,1,0,1,1,0
127,Uttar Pradesh,Kanpur,208005,26.4499,80.3319,1,1,0,0,1,1,1,0,1,0,1,0,0,0,0,0,0,1,0,1,0,1,1
128,Uttar Pradesh,Meerut,250003,28.9845,77.7064,0,1,1,0,0,0,0,0,0,1,0,0,1,0,0,0,1,1,1,1,0,0,1
129,Uttar Pradesh,Ghaziabad,201003,28.6692,77.4538,1,1,0,0,0,1,1,0,0,1,0,0,1,1,1,1,1,1,0,1,1,0,1
130,Uttar Pradesh,Kanpur,208003,26.4499,80.3319,1,1,0,0,0,1,0,0,1,1,0,0,0,0,1,0,0,0,0,0,1,1,1
131,Uttar Pradesh,Ghaziabad,201003,28.6692,77.4538,1,0,1,0,0,1,1,1,1,1,1,0,1,0,1,1,1,1,1,1,1,1,0
132,Uttar Pradesh,Kanpur,208001,26.4499,80.3319,1,1,1,1,0,0,1,1,0,1,0,1,1,1,1,1,1,1,0,0,1,1,0
133,Uttar Pradesh,Ghaziabad,201003,28.6692,77.4538,0,1,0,1,1,0,0,1,0,1,1,0,1,0,0,0,1,1,1,0,0,1,0
134,Uttar Pradesh,Meerut,250001,28.9845,77.7064,1,1,0,0,1,0,1,0,0,1,1,1,0,0,1,1,1,0,1,0,1,1,1
135,Uttar Pradesh,Kanpur,208001,26.4499,80.3319,0,0,0,0,0,0,1,1,0,0,0,0,0,0,0,1,1,0,0,0,1,1,0
136,Uttar Pradesh,Ghaziabad,201001,28.6692,77.4538,0,1,1,0,0,1,1,0,1,0,1,0,1,1,0,1,0,1,1,1,1,1,1
137,Uttar Pradesh,Meerut,250001,28.9845,77.7064,1,0,1,1,0,1,0,1,0,1,0,0,0,1,0,0,0,0,1,0,0,0,0
138,Uttar Pradesh,Lucknow,226001,26.8467,80.9462,1,0,0,1,0,1,1,0,0,1,1,0,0,1,0,0,1,1,1,0,0,1,1
139,Uttar Pradesh,Lucknow,226003,26.8467,80.9462,1,0,0,1,1,0,0,1,1,0,1,1,0,0,0,1,1,0,1,0,0,0,0
140,Uttar Pradesh,Ghaziabad,201005,28.6692,77.4538,0,0,0,0,0,0,0,1,1,1,1,1,0,1,1,1,1,0,0,0,0,1,0
141,Uttar Pradesh,Lucknow,226004,26.8467,80.9462,1,1,1,0,1,1,0,0,0,1,1,0,0,1,1,0,1,0,0,1,0,0,1
142,Uttar Pradesh,Meerut,250001,28.9845,77.7064,1,0,0,1,0,0,0,0,0,0,1,1,0,1,1,1,1,1,0,0,0,0,1
143,Uttar Pradesh,Meerut,250004,28.9845,77.7064,0,0,0,0,1,0,0,0,1,1,1,1,0,0,1,1,0,1,0,1,1,0,1
144,Uttar Pradesh,Lucknow,226005,26.8467,80.9462,1,1,0,1,0,1,0,0,1,0,0,1,1,1,0,1,1,0,0,0,1,0,1
145,Uttar Pradesh,Ghaziabad,201004,28.6692,77.4538,1,0,0,0,1,0,0,0,1,0,1,1,1,0,0,1,1,0,1,0,0,1,1
146,Uttar Pradesh,Agra,282003,27.1767,78.0081,0,1,0,0,1,1,1,1,1,1,1,0,1,1,1,1,0,0,0,1,0,0,0
147,Uttar Pradesh,Agra,282001,27.1767,78.0081,1,1,1,0,0,0,0,1,0,0,1,0,0,0,1,1,0,0,0,0,1,0,1
148,Uttar Pradesh,Meerut,250002,28.9845,77.7064,0,1,0,1,0,1,0,1,1,0,0,1,0,0,0,0,0,0,1,1,1,0,0
149,Uttar Pradesh,Agra,282005,27.1767,78.0081,1,1,1,1,0,0,0,0,0,1,1,0,1,0,1,0,0,0,0,0,0,1,0
150,Uttar Pradesh,Ghaziabad,201004,28.6692,77.4538,1,0,0,0,0,1,0,0,1,1,0,0,1,1,1,1,1,1,0,0,0,0,0
151,Uttar Pradesh,Lucknow,226001,26.8467,80.9462,0,0,0,1,1,0,1,1,0,1,0,1,0,0,0,1,0,0,1,1,0,0,0
152,Uttar Pradesh,Lucknow,226004,26.8467,80.9462,1,0,1,1,1,1,1,0,1,1,0,1,1,0,0,0,1,0,0,1,0,1,0
153,Uttar Pradesh,Agra,282005,27.1767,78.0081,0,1,1,0,0,0,0,1,0,0,0,0,1,0,0,1,1,1,0,1,1,0,0
154,Uttar Pradesh,Lucknow,226003,26.8467,80.9462,0,0,0,0,1,1,0,1,0,1,0,1,0,1,1,0,0,0,0,0,0,0,1
155,Uttar Pradesh,Ghaziabad,201002,28.6692,77.4538,1,0,0,0,1,1,1,0,0,0,1,1,0,0,0,0,0,1,0,1,1,0,1
156,Uttar Pradesh,Kanpur,208004,26.4499,80.3319,1,1,1,1,1,1,1,0,0,0,1,1,0,1,1,1,0,0,0,1,1,0,1
157,Uttar Pradesh,Lucknow,226004,26.8467,80.9462,0,0,1,0,0,1,0,0,1,0,0,1,1,1,0,1,0,1,0,0,0,0,1
158,Uttar Pradesh,Ghaziabad,201004,28.6692,77.4538,1,1,0,1,0,1,0,1,1,0,0,1,0,1,0,1,0,0,1,0,0,0,0
159,Uttar Pradesh,Kanpur,208005,26.4499,80.3319,1,0,1,1,0,0,0,1,0,1,0,1,1,0,0,0,1,1,1,0,1,0,1
160,Uttar Pradesh,Ghaziabad,201001,28.6692,77.4538,1,1,0,1,0,1,1,1,0,0,0,0,0,1,1,0,1,0,0,1,0,1,1
161,Uttar Pradesh,Meerut,250005,28.9845,77.7064,0,0,0,0,0,0,1,0,1,1,1,1,1,0,0,0,1,1,1,1,0,0,1
162,Uttar Pradesh,Lucknow,226002,26.8467,80.9462,0,0,1,1,1,0,0,0,0,1,0,0,0,0,1,0,1,1,1,1,0,1,0
163,Uttar Pradesh,Ghaziabad,201002,28.6692,77.4538,0,0,0,0,0,0,1,0,1,1,1,0,1,0,1,1,0,0,0,1,1,0,0
164,Uttar Pradesh,Meerut,250001,28.9845,77.7064,0,0,1,1,0,0,1,1,1,1,1,1,1,0,0,0,0,0,1,0,1,0,0
165,Uttar Pradesh,Meerut,250002,28.9845,77.7064,0,0,1,0,1,1,0,1,1,1,1,1,1,0,1,0,1,0,0,0,0,1,0
166,Uttar Pradesh,Meerut,250005,28.9845,77.7064,1,1,1,0,1,0,1,0,1,0,0,0,1,0,0,1,0,1,1,1,1,0,0
167,Uttar Pradesh,Lucknow,226003,26.8467,80.9462,1,1,0,0,1,1,0,0,0,1,1,1,0,1,0,1,0,1,1,0,0,1,0
168,Uttar Pradesh,Ghaziabad,201004,28.6692,77.4538,1,1,0,0,0,1,1,0,0,1,0,1,1,1,1,0,0,0,0,0,1,1,1
169,Uttar Pradesh,Agra,282002,27.1767,78.0081,1,0,1,1,0,0,0,0,0,1,0,0,0,1,1,0,1,0,0,0,1,0,0
170,Uttar Pradesh,Meerut,250001,28.9845,77.7064,1,1,0,0,0,0,0,0,1,0,0,0,1,1,0,0,1,0,0,1,1,0,0
171,Uttar Pradesh,Ghaziabad,201001,28.6692,77.4538,0,1,1,0,0,0,0,0,1,1,0,0,0,1,0,1,0,0,0,1,1,0,1
172,Uttar Pradesh,Agra,282004,27.1767,78.0081,0,0,1,0,0,1,1,1,1,0,1,1,1,1,0,0,1,0,0,0,0,1,1
173,Uttar Pradesh,Ghaziabad,201005,28.6692,77.4538,0,0,0,0,0,1,1,0,1,1,0,1,1,0,0,0,0,1,0,1,1,0,0
174,Uttar Pradesh,Ghaziabad,201002,28.6692,77.4538,0,0,0,1,0,1,1,0,0,1,1,0,1,0,0,1,0,1,1,0,0,0,0
175,Uttar Pradesh,Lucknow,226005,26.8467,80.9462,1,0,0,0,1,1,0,0,0,1,1,1,0,0,0,0,1,0,0,0,0,0,1
176,Uttar Pradesh,Lucknow,226004,26.8467,80.9462,1,0,1,1,1,1,1,1,1,0,1,1,1,0,0,1,0,0,1,1,1,1,0
177,Uttar Pradesh,Meerut,250005,28.9845,77.7064,0,0,0,1,1,1,0,0,0,0,1,0,0,1,0,1,1,1,1,0,1,1,0
178,Uttar Pradesh,Kanpur,208002,26.4499,80.3319,1,1,1,1,0,1,1,1,0,0,0,0,0,1,1,0,0,1,0,0,0,1,1
179,Uttar Pradesh,Meerut,250002,28.9845,77.7064,1,0,0,0,1,1,0,0,0,0,1,0,1,0,0,1,1,0,0,0,1,1,0
180,Uttar Pradesh,Meerut,250003,28.9845,77.7064,0,1,1,1,0,0,1,0,0,0,0,0,0,0,0,0,0,1,1,1,0,0,1
181,Uttar Pradesh,Meerut,250005,28.9845,77.7064,1,1,0,1,0,1,0,0,0,1,0,0,0,1,0,0,1,0,0,1,1,1,1
182,Uttar Pradesh,Agra,282002,27.1767,78.0081,0,1,1,0,1,0,0,0,1,0,1,0,0,1,1,0,0,1,0,1,1,1,0
183,Uttar Pradesh,Kanpur,208004,26.4499,80.3319,1,0,1,0,0,1,1,1,0,1,1,0,0,1,1,0,0,0,1,0,1,1,1
184,Uttar Pradesh,Meerut,250005,28.9845,77.7064,1,0,0,0,0,1,1,1,1,0,0,1,0,0,1,0,0,1,0,0,0,1,1
185,Uttar Pradesh,Lucknow,226001,26.8467,80.9462,1,0,1,0,0,1,1,0,0,1,0,1,0,1,0,1,0,1,1,0,1,1,0
186,Uttar Pradesh,Agra,282005,27.1767,78.0081,1,0,0,1,0,1,0,1,1,0,1,1,1,0,1,1,0,0,0,1,1,1,1
187,Uttar Pradesh,Lucknow,226004,26.8467,80.9462,1,0,1,1,0,1,0,1,1,0,1,1,0,1,0,0,0,0,0,0,0,1,1
188,Uttar Pradesh,Agra,282001,27.1767,78.0081,1,1,0,1,0,1,0,0,0,1,0,0,0,0,0,1,0,1,1,0,0,0,1
189,Uttar Pradesh,Kanpur,208001,26.4499,80.3319,0,0,1,1,1,0,0,1,1,1,1,1,0,0,0,0,0,0,0,1,0,0,0
190,Uttar Pradesh,Agra,282005,27.1767,78.0081,0,1,0,1,0,1,0,0,0,0,1,0,1,0,1,1,1,0,0,0,0,1,1
191,Uttar Pradesh,Lucknow,226004,26.8467,80.9462,0,1,0,0,0,0,0,0,0,0,1,0,1,0,0,1,0,1,1,0,1,0,1
192,Uttar Pradesh,Ghaziabad,201001,28.6692,77.4538,1,0,1,0,0,0,1,1,0,0,0,1,1,1,1,1,1,1,1,1,0,1,0
193,Uttar Pradesh,Agra,282001,27.1767,78.0081,0,0,1,0,0,0,0,0,1,0,0,0,1,0,0,0,1,0,0,0,0,1,0
194,Uttar Pradesh,Kanpur,208003,26.4499,80.3319,1,0,0,0,1,0,1,0,0,0,1,1,0,1,0,0,0,0,1,0,0,0,1
195,Uttar Pradesh,Ghaziabad,201005,28.6692,77.4538,1,0,0,1,1,0,1,0,1,0,0,1,1,0,0,1,0,0,1,0,0,1,0
196,Uttar Pradesh,Agra,282002,27.1767,78.0081,1,1,1,0,0,0,0,0,0,0,1,1,1,0,0,1,1,1,0,1,0,0,0
197,Uttar Pradesh,Meerut,250003,28.9845,77.7064,1,0,0,0,0,1,1,0,0,0,0,0,1,0,1,0,0,1,0,1,0,1,1
198,Uttar Pradesh,Lucknow,226004,26.8467,80.9462,0,0,0,1,0,1,1,0,0,0,0,0,0,0,1,0,0,1,0,1,0,0,1
199,Uttar Pradesh,Agra,282004,27.1767,78.0081,1,0,0,0,1,0,0,1,1,0,1,0,0,0,0,1,0,0,0,0,0,1,0
200,Uttar Pradesh,Agra,282004,27.1767,78.0081,1,0,1,1,1,1,0,1,1,0,0,1,0,1,0,0,1,0,1,0,0,0,0
201,Tamil Nadu,Salem,636004,11.6643,78.146,0,0,0,0,0,1,0,1,0,0,0,0,1,0,0,1,0,0,1,0,0,1,0
202,Tamil Nadu,Coimbatore,641001,11.0168,76.9558,0,1,0,0,0,0,1,0,0,0,1,0,1,1,1,0,0,0,1,1,1,0,0
203,Tamil Nadu,Coimbatore,641001,11.0168,76.9558,0,1,0,0,0,1,1,0,0,0,1,0,0,0,1,0,0,0,1,1,1,0,0
204,Tamil Nadu,Coimbatore,641003,11.0168,76.9558,0,1,1,1,0,0,0,0,0,0,0,0,1,1,0,0,0,1,1,0,0,0,0
205,Tamil Nadu,Coimbatore,641005,11.0168,76.9558,1,1,1,0,0,0,0,1,1,0,0,0,0,1,0,1,1,0,1,1,0,1,0
206,Tamil Nadu,Tiruchirappalli,620003,10.7905,78.7047,0,0,0,1,1,0,1,0,1,0,0,0,1,1,0,0,1,0,1,0,1,1,0
207,Tamil Nadu,Coimbatore,641004,11.0168,76.9558,1,0,0,0,0,0,1,1,0,0,0,1,0,0,1,1,1,0,0,0,0,1,0
208,Tamil Nadu,Tiruchirappalli,620001,10.7905,78.7047,1,1,1,0,0,0,1,1,0,0,1,1,1,0,1,0,0,0,0,0,0,0,0
209,Tamil Nadu,Coimbatore,641002,11.0168,76.9558,1,1,0,0,0,1,1,0,1,0,1,1,0,0,1,1,1,0,1,0,1,0,0
210,Tamil Nadu,Salem,636003,11.6643,78.146,1,1,1,0,1,1,0,0,1,0,1,1,1,1,0,0,1,1,0,0,1,0,1
211,Tamil Nadu,Tiruchirappalli,620003,10.7905,78.7047,1,1,0,0,0,1,1,0,1,1,0,1,0,0,0,1,1,1,1,0,1,1,0
212,Tamil Nadu,Chennai,600003,13.0827,80.2707,1,0,1,1,0,0,1,0,1,1,1,1,1,0,0,1,0,1,1,0,0,1,0
213,Tamil Nadu,Madurai,625004,9.9252,78.1198,1,0,0,0,0,1,1,1,0,1,0,1,0,0,0,1,0,1,1,1,1,0,0
214,Tamil Nadu,Salem,636005,11.6643,78.146,0,0,1,1,1,0,1,1,0,0,0,1,1,0,1,0,0,1,1,1,0,0,1
215,Tamil Nadu,Chennai,600005,13.0827,80.2707,1,0,1,1,0,0,0,1,1,1,0,0,1,1,1,1,0,0,1,0,1,0,0
216,Tamil Nadu,Tiruchirappalli,620003,10.7905,78.7047,1,1,0,0,0,1,1,0,1,1,0,0,0,1,0,1,0,0,1,0,1,1,1
217,Tamil Nadu,Tiruchirappalli,620002,10.7905,78.7047,0,0,0,1,1,1,1,1,0,0,0,0,0,0,0,0,0,0,1,0,1,1,0
218,Tamil Nadu,Madurai,625002,9.9252,78.1198,0,0,1,0,1,1,1,1,0,1,1,1,1,0,0,1,0,0,1,1,0,1,0
219,Tamil Nadu,Chennai,600004,13.0827,80.2707,0,1,1,0,0,1,1,1,0,1,0,0,0,1,0,1,0,1,0,1,0,1,1
220,Tamil Nadu,Madurai,625003,9.9252,78.1198,0,0,1,1,0,1,1,0,1,1,1,1,0,1,1,1,0,1,1,1,0,0,0
221,Tamil Nadu,Tiruchirappalli,620005,10.7905,78.7047,1,0,0,1,1,0,0,0,0,0,1,0,0,0,0,1,1,1,0,0,1,1,0
222,Tamil Nadu,Salem,636004,11.6643,78.146,1,0,1,1,0,0,0,0,1,1,0,1,0,0,1,1,0,0,1,0,0,0,1
223,Tamil Nadu,Madurai,625004,9.9252,78.1198,1,1,0,0,0,1,0,1,1,0,0,1,0,1,1,1,1,0,1,1,0,1,0
224,Tamil Nadu,Salem,636001,11.6643,78.146,0,1,1,0,0,0,0,0,0,0,1,1,1,1,0,1,0,0,0,1,0,0,0
225,Tamil Nadu,Madurai,625004,9.9252,78.1198,1,1,0,1,1,1,1,1,1,1,1,0,1,1,0,0,1,0,1,0,0,1,0
226,Tamil Nadu,Tiruchirappalli,620004,10.7905,78.7047,0,1,0,0,1,0,1,0,0,1,1,0,1,1,0,0,1,1,1,1,1,0,0
227,Tamil Nadu,Salem,636001,11.6643,78.146,1,0,0,1,0,1,0,1,0,1,0,0,1,0,1,0,1,0,0,1,0,0,0
228,Tamil Nadu,Chennai,600004,13.0827,80.2707,0,1,1,0,0,0,0,1,0,0,1,0,1,1,0,1,1,1,1,0,0,0,0
229,Tamil Nadu,Tiruchirappalli,620003,10.7905,78.7047,1,0,1,0,1,1,1,0,0,1,0,1,0,1,0,0,1,0,1,1,1,0,0
230,Tamil Nadu,Tiruchirappalli,620005,10.7905,78.7047,1,1,1,0,0,1,0,0,0,1,0,0,0,0,0,1,1,1,1,0,1,1,0
231,Tamil Nadu,Coimbatore,641003,11.0168,76.9558,1,0,0,1,0,1,1,0,1,1,0,1,0,0,1,0,1,1,1,1,0,1,0
232,Tamil Nadu,Madurai,625003,9.9252,78.1198,0,1,0,1,1,0,0,0,1,1,0,1,1,0,0,1,0,0,1,1,1,1,1
233,Tamil Nadu,Salem,636002,11.6643,78.146,1,1,0,0,0,1,0,1,1,1,0,1,1,0,1,1,1,1,0,0,1,0,1
234,Tamil Nadu,Tiruchirappalli,620005,10.7905,78.7047,0,1,0,0,0,1,1,0,0,0,1,0,1,1,1,0,1,1,1,1,1,1,1
235,Tamil Nadu,Chennai,600004,13.0827,80.2707,1,0,1,0,0,0,0,0,0,0,1,1,1,1,1,0,0,1,1,0,0,1,0
236,Tamil Nadu,Salem,636003,11.6643,78.146,1,0,1,1,0,1,0,1,0,1,0,1,0,1,1,1,0,0,1,1,1,1,1
237,Tamil Nadu,Tiruchirappalli,620001,10.7905,78.7047,1,0,1,1,0,0,0,1,1,1,1,1,1,0,0,0,0,0,1,0,0,1,0
238,Tamil Nadu,Chennai,600004,13.0827,80.2707,0,1,1,0,1,0,1,1,1,1,1,1,0,1,0,1,1,0,0,0,0,1,0
239,Tamil Nadu,Chennai,600001,13.0827,80.2707,1,0,0,0,1,1,1,0,1,0,0,1,0,0,0,0,0,1,0,1,0,0,0
240,Tamil Nadu,Chennai,600002,13.0827,80.2707,1,0,0,0,1,1,0,1,1,0,0,0,0,0,0,1,0,1,1,0,0,0,0
241,Tamil Nadu,Coimbatore,641003,11.0168,76.9558,0,0,1,1,0,0,0,0,1,1,1,1,1,1,0,1,0,1,1,1,0,1,0
242,Tamil Nadu,Coimbatore,641005,11.0168,76.9558,1,1,1,0,0,1,0,1,0,1,1,1,1,1,1,0,0,1,0,0,0,1,0
243,Tamil Nadu,Tiruchirappalli,620005,10.7905,78.7047,1,1,0,1,1,0,0,1,1,0,1,1,1,1,1,1,0,0,0,0,1,0,0
244,Tamil Nadu,Coimbatore,641001,11.0168,76.9558,0,0,0,1,0,1,1,1,0,1,0,1,0,1,1,0,1,1,1,1,1,0,0
245,Tamil Nadu,Chennai,600003,13.0827,80.2707,0,0,0,0,0,1,0,0,1,1,0,1,0,0,1,1,1,1,1,1,1,0,0
246,Tamil Nadu,Tiruchirappalli,620001,10.7905,78.7047,1,1,1,1,1,1,1,0,0,1,1,1,0,0,1,1,1,1,1,1,1,0,1
247,Tamil Nadu,Tiruchirappalli,620004,10.7905,78.7047,1,1,1,1,0,1,1,0,1,1,0,0,1,0,0,0,0,0,1,0,1,0,0
248,Tamil Nadu,Coimbatore,641002,11.0168,76.9558,0,1,1,1,1,0,1,1,0,1,1,1,0,0,1,1,1,0,0,1,1,1,1
249,Tamil Nadu,Chennai,600004,13.0827,80.2707,0,0,1,1,0,0,0,0,1,0,1,1,0,1,0,1,1,0,1,0,0,1,1
250,Tamil Nadu,Coimbatore,641001,11.0168,76.9558,1,1,1,1,0,1,0,0,1,0,0,0,1,0,0,1,1,0,0,0,0,0,1
251,Tamil Nadu,Coimbatore,641002,11.0168,76.9558,1,1,0,0,1,0,1,1,0,0,1,1,0,0,1,1,0,0,1,0,1,0,1
252,Tamil Nadu,Chennai,600001,13.0827,80.2707,0,1,1,1,0,0,0,1,0,0,0,0,1,0,1,0,1,1,1,0,1,0,1
253,Tamil Nadu,Salem,636001,11.6643,78.146,1,0,1,0,0,0,0,1,0,1,0,0,0,1,1,1,1,0,0,1,0,1,0
254,Tamil Nadu,Coimbatore,641004,11.0168,76.9558,0,1,1,0,0,1,0,0,1,1,1,1,0,0,0,1,1,0,1,0,1,1,1
255,Tamil Nadu,Coimbatore,641002,11.0168,76.9558,1,1,0,1,0,1,1,0,1,1,1,0,0,1,1,1,0,0,0,1,0,1,1
256,Tamil Nadu,Chennai,600001,13.0827,80.2707,1,0,0,1,0,1,0,1,0,1,1,1,1,1,1,0,1,1,1,1,0,1,0
257,Tamil Nadu,Madurai,625001,9.9252,78.1198,0,0,1,0,1,1,1,0,1,0,0,0,1,0,1,1,0,1,1,1,0,0,1
258,Tamil Nadu,Tiruchirappalli,620005,10.7905,78.7047,1,1,1,0,1,0,1,0,1,0,1,0,1,1,1,0,0,1,1,0,1,1,1
259,Tamil Nadu,Coimbatore,641005,11.0168,76.9558,1,0,0,0,1,0,1,0,0,1,0,1,1,1,0,1,1,0,1,0,1,0,0
260,Tamil Nadu,Madurai,625004,9.9252,78.1198,0,1,1,0,0,1,0,1,0,1,1,1,0,1,0,1,0,1,0,1,0,1,0
261,Tamil Nadu,Coimbatore,641005,11.0168,76.9558,1,0,0,1,0,1,0,0,1,0,1,0,0,1,1,0,1,0,0,1,1,1,0
262,Tamil Nadu,Salem,636004,11.6643,78.146,1,1,1,0,1,0,1,1,0,1,0,1,0,1,1,1,1,1,0,0,0,0,1
263,Tamil Nadu,Tiruchirappalli,620004,10.7905,78.7047,0,1,0,0,1,1,0,1,1,0,0,1,0,1,1,0,1,0,1,0,0,0,1
264,Tamil Nadu,Madurai,625003,9.9252,78.1198,0,1,0,1,1,1,0,0,1,1,0,0,0,1,0,0,1,1,0,1,0,0,0
265,Tamil Nadu,Tiruchirappalli,620005,10.7905,78.7047,0,0,1,1,0,1,0,0,1,1,0,0,0,0,1,1,1,0,0,1,1,0,1
266,Tamil Nadu,Tiruchirappalli,620003,10.7905,78.7047,0,0,1,0,1,1,1,0,1,0,1,0,1,0,0,0,0,0,0,0,0,0,0
267,Tamil Nadu,Salem,636005,11.6643,78.146,1,0,1,0,1,0,0,0,1,0,0,1,0,1,1,0,1,0,0,0,0,0,1
268,Tamil Nadu,Coimbatore,641003,11.0168,76.9558,1,1,0,0,1,1,1,0,1,1,0,0,1,1,1,1,1,0,1,0,0,1,0
269,Tamil Nadu,Salem,636004,11.6643,78.146,1,1,1,0,1,1,0,1,1,0,0,0,0,1,0,1,1,1,0,0,1,0,1
270,Tamil Nadu,Salem,636004,11.6643,78.146,0,0,0,1,0,1,0,1,0,1,0,0,0,0,1,1,0,0,1,1,1,0,0
271,Tamil Nadu,Salem,636005,11.6643,78.146,0,1,0,0,0,0,0,1,0,0,0,0,0,1,1,1,1,1,0,0,1,1,1
272,Tamil Nadu,Madurai,625005,9.9252,78.1198,1,1,1,0,1,0,1,1,0,0,0,1,0,0,1,1,0,1,0,0,1,0,0
273,Tamil Nadu,Chennai,600003,13.0827,80.2707,0,1,1,0,1,0,1,0,1,1,1,1,1,1,1,1,1,0,0,1,0,1,0
274,Tamil Nadu,Madurai,625001,9.9252,78.1198,1,0,0,1,0,0,1,0,0,1,1,0,1,0,1,0,0,1,0,1,1,1,0
275,Tamil Nadu,Tiruchirappalli,620003,10.7905,78.7047,1,0,1,0,0,1,1,0,1,0,0,0,0,0,1,1,0,0,1,1,1,0,1
276,Tamil Nadu,Tiruchirappalli,620004,10.7905,78.7047,1,0,1,0,1,0,1,1,1,1,0,0,0,0,1,1,0,1,0,0,1,0,0
277,Tamil Nadu,Coimbatore,641005,11.0168,76.9558,0,1,1,1,0,1,1,1,1,0,0,1,0,1,0,1,1,1,0,0,1,0,0
278,Tamil Nadu,Chennai,600004,13.0827,80.2707,0,1,0,0,1,0,1,0,1,0,0,1,1,0,1,1,1,1,1,1,1,0,0
279,Tamil Nadu,Salem,636001,11.6643,78.146,1,1,1,0,0,0,0,0,1,1,1,1,1,1,0,1,1,1,0,1,0,0,0
280,Tamil Nadu,Chennai,600004,13.0827,80.2707,0,1,0,1,0,1,0,0,1,1,0,1,1,1,0,1,0,0,0,1,0,1,1
281,Tamil Nadu,Coimbatore,641004,11.0168,76.9558,0,1,0,1,1,1,0,0,1,0,1,1,0,0,1,0,0,1,0,0,0,0,0
282,Tamil Nadu,Tiruchirappalli,620001,10.7905,78.7047,1,0,0,0,1,0,1,0,1,0,1,1,1,0,0,1,1,1,1,0,1,1,0
283,Tamil Nadu,Chennai,600005,13.0827,80.2707,0,1,0,1,0,0,1,1,1,1,0,1,1,1,0,1,0,0,1,0,1,1,1
284,Tamil Nadu,Coimbatore,641004,11.0168,76.9558,0,0,1,0,0,0,1,0,1,1,0,1,0,1,1,1,0,1,0,0,0,1,1
285,Tamil Nadu,Salem,636005,11.6643,78.146,0,1,1,1,1,0,0,1,0,1,1,1,0,1,1,1,1,1,1,1,0,1,1
286,Tamil Nadu,Madurai,625001,9.9252,78.1198,1,1,1,0,0,1,0,0,1,0,0,1,1,0,0,1,1,1,1,1,0,1,0
287,Tamil Nadu,Tiruchirappalli,620005,10.7905,78.7047,1,1,1,1,1,1,1,0,1,1,1,1,1,0,0,1,1,1,1,0,0,1,1
288,Tamil Nadu,Salem,636003,11.6643,78.146,0,1,0,1,1,0,1,1,1,1,1,1,1,0,0,1,0,1,1,1,0,0,0
289,Tamil Nadu,Madurai,625001,9.9252,78.1198,0,0,1,0,1,1,0,0,1,1,0,0,1,0,0,1,1,1,1,1,0,1,1
290,Tamil Nadu,Madurai,625003,9.9252,78.1198,1,1,1,1,0,0,1,1,1,1,1,1,0,1,1,1,1,1,1,0,0,1,0
291,Tamil Nadu,Chennai,600004,13.0827,80.2707,1,0,0,1,1,1,0,0,1,0,1,1,1,1,0,1,1,1,1,0,1,0,1
292,Tamil Nadu,Madurai,625001,9.9252,78.1198,0,1,1,1,0,1,0,1,0,0,1,1,1,1,0,0,0,1,1,0,0,1,1
293,Tamil Nadu,Tiruchirappalli,620004,10.7905,78.7047,0,1,0,1,0,1,0,1,1,1,1,0,0,0,1,1,0,1,1,0,0,1,1
294,Tamil Nadu,Tiruchirappalli,620001,10.7905,78.7047,0,1,0,0,0,0,0,1,1,0,1,0,0,0,0,0,1,0,1,0,0,1,1
295,Tamil Nadu,Tiruchirappalli,620001,10.7905,78.7047,0,1,1,0,0,1,1,0,0,1,0,0,0,0,1,0,1,1,0,0,0,1,1
296,Tamil Nadu,Chennai,600001,13.0827,80.2707,0,0,0,1,0,0,1,0,1,1,1,0,1,0,0,0,1,1,0,0,1,1,0
297,Tamil Nadu,Salem,636004,11.6643,78.146,0,1,0,1,0,0,1,0,1,0,0,0,1,1,1,1,0,1,0,0,1,0,0
298,Tamil Nadu,Madurai,625001,9.9252,78.1198,0,1,0,1,1,0,0,0,0,1,0,0,0,0,1,1,0,1,1,0,0,0,0
299,Tamil Nadu,Coimbatore,641002,11.0168,76.9558,0,1,0,0,1,0,1,0,1,1,0,0,0,0,0,1,1,1,1,0,0,0,0
300,Tamil Nadu,Salem,636001,11.6643,78.146,0,0,1,1,1,0,0,0,0,0,1,0,0,0,0,0,0,1,1,1,1,0,0
301,West Bengal,Kolkata,700005,22.5726,88.3639,1,0,0,1,1,1,0,0,1,1,1,0,0,0,0,0,0,0,0,0,1,0,0
302,West Bengal,Siliguri,734002,26.7271,88.3953,0,0,0,0,0,0,1,0,0,1,0,1,1,0,0,0,0,0,1,1,1,1,1
303,West Bengal,Asansol,713304,23.6833,86.9833,1,0,0,0,1,0,0,1,1,1,0,1,0,0,0,1,0,0,1,0,0,0,0
304,West Bengal,Durgapur,713203,23.5204,87.3119,0,1,0,0,0,1,1,0,1,1,0,1,1,1,0,1,1,1,1,1,0,0,0
305,West Bengal,Howrah,711103,22.5958,88.2636,0,1,0,0,0,1,1,1,1,1,1,1,0,1,1,1,0,1,0,0,1,1,1
306,West Bengal,Howrah,711101,22.5958,88.2636,1,1,1,0,1,0,1,0,0,0,0,0,1,0,0,0,1,0,1,0,1,0,0
307,West Bengal,Siliguri,734001,26.7271,88.3953,0,0,0,1,1,0,0,0,0,1,0,1,1,0,1,1,1,0,1,1,1,0,1
308,West Bengal,Siliguri,734002,26.7271,88.3953,0,1,0,0,0,1,1,1,1,1,0,1,1,0,1,1,0,0,0,0,0,1,0
309,West Bengal,Kolkata,700001,22.5726,88.3639,0,1,0,1,1,0,1,0,0,1,0,0,1,1,1,0,0,0,1,1,1,1,1
310,West Bengal,Howrah,711102,22.5958,88.2636,0,1,0,1,1,1,1,1,1,1,0,0,0,0,0,0,1,0,0,0,1,1,1
311,West Bengal,Durgapur,713204,23.5204,87.3119,1,0,1,1,0,0,0,0,0,0,1,1,1,0,1,1,1,1,1,1,1,0,0
312,West Bengal,Howrah,711103,22.5958,88.2636,0,0,0,0,0,0,1,1,0,0,0,1,1,0,0,0,1,0,0,0,0,1,0
313,West Bengal,Howrah,711104,22.5958,88.2636,1,0,1,0,1,1,0,0,0,0,0,1,1,0,0,1,0,0,0,0,1,1,0
314,West Bengal,Asansol,713301,23.6833,86.9833,1,1,1,0,1,0,1,0,0,1,0,0,1,0,0,0,0,1,0,0,0,1,1
315,West Bengal,Durgapur,713203,23.5204,87.3119,1,1,1,0,1,0,1,1,1,0,1,1,0,1,1,1,1,1,1,0,0,1,0
316,West Bengal,Siliguri,734001,26.7271,88.3953,1,0,0,0,1,1,0,0,0,1,0,1,1,1,1,1,0,0,1,0,1,0,0
317,West Bengal,Howrah,711101,22.5958,88.2636,0,1,0,1,0,1,0,0,1,0,0,0,1,0,0,0,1,0,1,0,0,0,1
318,West Bengal,Kolkata,700004,22.5726,88.3639,1,0,1,0,1,0,1,1,0,1,1,0,0,0,0,0,0,0,1,1,0,0,0
319,West Bengal,Durgapur,713205,23.5204,87.3119,0,0,0,0,1,0,0,0,1,0,0,1,1,0,0,0,0,1,0,1,0,0,1
320,West Bengal,Asansol,713305,23.6833,86.9833,1,0,1,1,1,0,0,1,1,0,1,1,1,1,0,0,1,0,0,0,0,1,0
321,West Bengal,Durgapur,713201,23.5204,87.3119,0,1,0,1,1,1,0,1,1,1,0,0,1,1,1,1,1,1,1,0,1,0,0
322,West Bengal,Asansol,713305,23.6833,86.9833,0,0,0,1,1,0,1,0,0,0,0,0,1,0,1,1,1,0,0,0,0,0,0
323,West Bengal,Howrah,711103,22.5958,88.2636,0,1,1,1,1,0,1,1,1,0,0,0,0,0,1,1,0,1,1,0,0,1,1
324,West Bengal,Howrah,711105,22.5958,88.2636,0,0,0,1,1,0,0,1,1,1,0,1,0,0,1,0,0,0,1,1,0,0,1
325,West Bengal,Kolkata,700001,22.5726,88.3639,0,1,0,1,1,0,0,0,1,0,0,0,0,0,1,0,1,1,0,0,1,1,0
326,West Bengal,Kolkata,700002,22.5726,88.3639,1,0,1,0,0,0,1,0,1,1,1,1,1,1,0,1,0,0,1,0,0,0,1
327,West Bengal,Kolkata,700001,22.5726,88.3639,0,0,1,0,0,1,1,1,1,1,0,0,0,1,0,1,1,0,1,1,1,1,0
328,West Bengal,Asansol,713304,23.6833,86.9833,1,0,0,0,0,1,0,1,0,0,1,1,0,0,1,0,0,0,0,1,1,1,0
329,West Bengal,Durgapur,713205,23.5204,87.3119,1,0,0,1,0,0,0,0,0,1,0,0,1,0,1,1,0,0,1,0,0,1,1
330,West Bengal,Howrah,711102,22.5958,88.2636,1,1,1,1,0,0,1,1,1,1,0,1,1,1,0,0,1,0,1,0,1,1,0
331,West Bengal,Howrah,711104,22.5958,88.2636,1,0,1,1,1,1,0,1,1,1,1,1,0,0,1,0,0,1,0,1,1,1,1
332,West Bengal,Siliguri,734004,26.7271,88.3953,0,0,0,0,0,1,1,1,1,0,1,0,0,0,1,1,0,0,0,1,0,1,0
333,West Bengal,Kolkata,700003,22.5726,88.3639,0,0,0,1,0,0,0,1,0,1,0,0,0,0,1,0,1,1,1,1,0,1,1
334,West Bengal,Howrah,711101,22.5958,88.2636,0,0,1,0,0,0,0,0,0,0,1,0,1,0,0,1,0,1,1,0,0,1,1
335,West Bengal,Siliguri,734003,26.7271,88.3953,0,0,1,1,0,0,0,0,1,0,1,0,0,1,1,0,0,1,0,0,1,0,1
336,West Bengal,Durgapur,713202,23.5204,87.3119,0,1,1,0,1,0,1,1,1,0,1,1,1,1,1,0,0,1,0,0,0,1,0
337,West Bengal,Durgapur,713204,23.5204,87.3119,0,0,1,0,1,0,1,0,0,0,1,0,1,1,0,0,0,0,0,1,1,1,1
338,West Bengal,Siliguri,734004,26.7271,88.3953,1,1,1,0,1,1,1,1,1,0,0,0,1,1,0,1,0,1,0,1,0,1,1
339,West Bengal,Durgapur,713203,23.5204,87.3119,1,1,1,1,1,0,0,1,0,1,1,1,1,1,0,1,0,1,1,1,1,0,1
340,West Bengal,Durgapur,713201,23.5204,87.3119,0,0,1,0,1,1,1,0,0,0,1,1,1,1,1,0,0,0,1,1,1,1,1
341,West Bengal,Howrah,711104,22.5958,88.2636,0,1,1,1,1,0,1,0,1,1,0,0,0,0,0,1,0,0,0,1,1,1,0
342,West Bengal,Siliguri,734001,26.7271,88.3953,0,0,1,0,0,1,1,1,0,0,1,1,0,1,0,0,0,1,1,0,1,0,1
343,West Bengal,Kolkata,700002,22.5726,88.3639,0,1,1,1,0,0,0,0,0,0,0,0,1,0,1,1,0,0,0,1,1,0,1
344,West Bengal,Asansol,713304,23.6833,86.9833,0,1,0,1,1,1,1,1,1,1,1,0,0,1,0,1,1,0,0,0,0,0,1
345,West Bengal,Asansol,713302,23.6833,86.9833,1,0,1,0,0,0,0,0,0,1,0,0,1,1,1,0,1,0,1,0,0,0,1
346,West Bengal,Siliguri,734003,26.7271,88.3953,0,1,1,0,0,1,1,1,0,0,1,0,1,1,1,1,0,1,1,0,1,0,0
347,West Bengal,Siliguri,734005,26.7271,88.3953,0,1,1,0,0,1,0,1,1,0,1,0,1,1,0,0,0,1,0,0,0,1,1
348,West Bengal,Kolkata,700002,22.5726,88.3639,1,1,0,0,1,0,0,0,0,0,0,0,1,1,1,1,0,1,1,1,1,1,1
349,West Bengal,Kolkata,700005,22.5726,88.3639,1,0,1,1,0,1,1,1,0,1,0,0,0,0,0,1,1,0,0,1,1,1,0
350,West Bengal,Siliguri,734004,26.7271,88.3953,0,1,1,1,1,0,0,0,1,1,1,0,1,0,0,0,0,1,1,0,0,0,1
351,West Bengal,Asansol,713302,23.6833,86.9833,1,1,0,0,1,0,1,0,0,0,1,1,0,0,0,0,1,1,1,1,1,0,0
352,West Bengal,Asansol,713301,23.6833,86.9833,0,0,1,1,1,1,1,1,0,0,1,1,1,0,1,0,0,0,1,0,0,1,0
353,West Bengal,Kolkata,700002,22.5726,88.3639,0,1,0,0,1,0,0,0,1,1,0,1,1,0,0,1,1,0,1,1,0,0,1
354,West Bengal,Howrah,711101,22.5958,88.2636,0,0,1,1,1,0,0,0,0,0,0,1,1,0,1,1,0,1,1,0,0,0,0
355,West Bengal,Durgapur,713202,23.5204,87.3119,1,0,1,1,1,1,1,1,1,0,1,1,1,0,1,0,1,0,0,1,0,1,0
356,West Bengal,Kolkata,700003,22.5726,88.3639,1,1,0,0,1,0,1,0,1,1,0,1,1,1,1,0,1,0,1,0,1,1,1
357,West Bengal,Durgapur,713204,23.5204,87.3119,0,0,0,0,1,1,1,0,0,0,1,0,0,0,0,0,0,1,1,0,0,1,0
358,West Bengal,Durgapur,713202,23.5204,87.3119,1,1,1,1,0,1,0,1,1,0,1,1,1,0,1,0,0,0,1,0,0,0,0
359,West Bengal,Kolkata,700005,22.5726,88.3639,1,1,1,0,0,0,0,0,1,1,0,1,1,1,0,1,1,1,1,1,1,0,0
360,West Bengal,Kolkata,700001,22.5726,88.3639,1,0,0,0,0,1,1,0,1,0,0,1,0,0,0,1,1,1,1,0,0,1,0
361,West Bengal,Durgapur,713201,23.5204,87.3119,1,1,1,0,1,1,0,1,1,1,0,1,0,1,0,0,0,0,1,1,0,0,1
362,West Bengal,Siliguri,734005,26.7271,88.3953,1,1,1,1,1,0,1,0,1,1,1,1,0,1,1,0,1,1,0,1,0,1,0
363,West Bengal,Asansol,713304,23.6833,86.9833,1,0,0,1,0,1,0,1,1,1,0,0,1,0,0,0,0,0,0,0,0,1,1
364,West Bengal,Howrah,711101,22.5958,88.2636,0,1,1,1,1,1,0,0,0,0,1,0,0,0,0,0,1,1,0,0,1,1,1
365,West Bengal,Howrah,711102,22.5958,88.2636,0,1,0,0,0,1,0,0,0,1,1,1,1,0,1,1,0,1,0,1,1,0,0
366,West Bengal,Asansol,713305,23.6833,86.9833,1,0,1,1,0,0,1,1,1,0,0,1,1,1,1,0,0,0,1,0,0,1,1
367,West Bengal,Howrah,711103,22.5958,88.2636,1,1,0,0,0,0,0,1,1,0,1,0,0,1,1,0,1,0,1,1,0,1,1
368,West Bengal,Siliguri,734002,26.7271,88.3953,1,1,1,0,0,0,1,0,1,0,0,1,0,0,0,1,1,1,0,0,0,0,1
369,West Bengal,Kolkata,700001,22.5726,88.3639,0,1,0,1,0,0,0,0,0,0,0,1,0,0,0,1,1,0,0,1,0,0,0
370,West Bengal,Howrah,711105,22.5958,88.2636,1,0,0,1,1,0,0,0,1,0,1,1,0,0,0,1,1,1,1,1,0,0,1
371,West Bengal,Kolkata,700001,22.5726,88.3639,0,1,1,0,1,1,1,1,0,0,0,0,0,1,0,1,0,0,1,1,0,1,0
372,West Bengal,Siliguri,734003,26.7271,88.3953,1,1,0,1,1,0,0,1,0,1,0,1,0,1,0,0,0,1,1,0,0,1,0
373,West Bengal,Siliguri,734005,26.7271,88.3953,1,1,1,1,0,0,0,0,1,0,1,0,0,0,0,0,0,1,0,0,1,0,1
374,West Bengal,Asansol,713305,23.6833,86.9833,1,1,0,0,1,0,1,1,1,1,0,1,0,0,0,0,0,1,1,0,0,0,1
375,West Bengal,Durgapur,713201,23.5204,87.3119,0,1,0,1,1,0,1,0,1,0,1,1,0,0,0,1,0,0,0,0,1,0,0
376,West Bengal,Siliguri,734003,26.7271,88.3953,0,1,0,0,0,0,0,1,1,0,0,0,0,1,0,1,1,0,1,0,0,1,0
377,West Bengal,Siliguri,734004,26.7271,88.3953,0,0,0,1,0,1,0,0,0,1,0,1,0,0,0,0,0,1,1,1,1,1,1
378,West Bengal,Howrah,711105,22.5958,88.2636,0,0,0,0,0,1,1,0,1,0,1,1,1,0,0,1,0,0,1,1,0,0,0
379,West Bengal,Kolkata,700002,22.5726,88.3639,1,0,0,1,0,1,0,0,1,0,0,1,0,0,1,1,1,1,1,1,1,0,0
380,West Bengal,Howrah,711104,22.5958,88.2636,1,0,0,0,1,0,1,0,1,0,0,1,0,1,0,0,1,1,0,0,1,1,0
381,West Bengal,Durgapur,713201,23.5204,87.3119,0,0,1,0,0,1,0,0,0,1,0,0,0,1,0,0,1,0,0,1,0,1,1
382,West Bengal,Durgapur,713205,23.5204,87.3119,0,0,0,0,0,0,0,1,1,0,0,0,1,1,1,0,0,0,1,1,0,1,0
383,West Bengal,Durgapur,713202,23.5204,87.3119,0,0,0,1,1,0,1,0,0,0,1,0,1,0,1,1,1,1,0,1,0,1,0
384,West Bengal,Durgapur,713203,23.5204,87.3119,0,1,0,1,0,1,1,1,0,0,1,1,0,1,0,0,1,0,1,1,1,0,1
385,West Bengal,Kolkata,700005,22.5726,88.3639,1,0,0,1,1,1,1,1,0,1,0,1,0,1,1,0,0,1,1,1,1,0,0
386,West Bengal,Howrah,711101,22.5958,88.2636,0,0,0,0,0,0,0,1,0,1,1,0,1,1,0,1,1,0,1,0,0,0,0
387,West Bengal,Asansol,713304,23.6833,86.9833,1,1,1,1,1,0,0,0,1,1,0,0,1,0,1,1,0,0,1,1,1,1,1
388,West Bengal,Howrah,711104,22.5958,88.2636,0,1,1,1,0,0,1,1,1,1,0,0,0,1,1,1,0,0,1,1,1,1,1
389,West Bengal,Asansol,713301,23.6833,86.9833,1,1,0,0,1,1,1,0,1,1,1,1,0,1,1,1,0,0,0,0,1,1,0
390,West Bengal,Kolkata,700002,22.5726,88.3639,0,1,0,1,1,1,1,0,1,1,0,1,1,0,1,1,1,1,1,0,1,1,0
391,West Bengal,Durgapur,713202,23.5204,87.3119,1,0,0,1,1,1,1,0,0,1,0,0,0,1,1,1,0,1,1,0,1,0,1
392,West Bengal,Durgapur,713202,23.5204,87.3119,1,1,0,0,0,1,1,0,0,1,1,0,1,1,0,1,1,1,0,0,0,1,1
393,West Bengal,Asansol,713302,23.6833,86.9833,0,0,0,1,0,0,0,1,0,0,1,1,0,0,1,0,0,0,0,0,0,0,0
394,West Bengal,Durgapur,713201,23.5204,87.3119,1,1,0,1,0,1,1,0,1,1,1,1,0,1,1,0,0,0,0,1,1,0,0
395,West Bengal,Asansol,713303,23.6833,86.9833,1,0,1,1,0,0,0,1,0,1,0,0,0,1,0,0,1,1,0,0,1,0,1
396,West Bengal,Howrah,711104,22.5958,88.2636,0,1,1,0,0,1,1,0,1,0,0,1,0,0,0,0,0,1,0,1,0,1,1
397,West Bengal,Durgapur,713202,23.5204,87.3119,0,1,0,0,0,1,0,0,1,0,1,1,0,0,0,1,0,1,0,0,1,1,1
398,West Bengal,Siliguri,734004,26.7271,88.3953,0,0,1,0,1,1,0,0,1,1,1,0,0,0,0,0,0,1,1,1,0,1,0
399,West Bengal,Kolkata,700005,22.5726,88.3639,0,0,1,1,0,0,1,1,0,0,1,0,0,0,0,1,0,0,1,1,1,1,0
400,West Bengal,Kolkata,700005,22.5726,88.3639,0,0,0,0,1,0,1,0,0,1,0,0,0,1,1,0,1,1,0,0,0,0,0
401,Gujarat,Bhavnagar,364004,21.7645,72.1519,1,1,0,0,1,0,1,1,1,1,1,0,0,1,1,1,0,1,1,0,0,1,1
402,Gujarat,Vadodara,390002,22.3072,73.1812,1,0,1,1,0,1,0,0,0,1,1,0,1,0,1,1,0,1,1,0,1,1,0
403,Gujarat,Rajkot,360004,22.3039,70.8022,1,0,0,1,1,0,0,0,1,0,0,1,1,0,0,1,1,0,1,1,1,1,0
404,Gujarat,Bhavnagar,364004,21.7645,72.1519,0,1,0,1,1,0,1,0,0,0,1,0,1,1,0,0,1,0,1,0,1,1,0
405,Gujarat,Rajkot,360005,22.3039,70.8022,0,1,1,1,0,1,0,0,0,1,1,1,0,0,1,0,0,1,0,1,0,1,1
406,Gujarat,Bhavnagar,364002,21.7645,72.1519,0,1,0,1,1,1,0,0,1,0,1,1,1,0,0,0,0,0,0,1,1,1,0
407,Gujarat,Rajkot,360001,22.3039,70.8022,1,1,0,1,1,1,1,0,0,1,0,0,0,1,0,1,0,1,0,0,0,1,1
408,Gujarat,Bhavnagar,364001,21.7645,72.1519,1,0,1,0,0,0,0,1,1,1,1,0,1,1,1,0,1,0,1,1,1,0,1
409,Gujarat,Bhavnagar,364003,21.7645,72.1519,1,0,1,1,1,1,0,1,1,1,0,0,0,1,0,0,1,0,1,1,1,1,0
410,Gujarat,Ahmedabad,380003,23.0225,72.5714,0,1,1,0,1,0,0,1,0,1,0,1,1,1,1,0,1,1,1,0,0,1,1
411,Gujarat,Vadodara,390003,22.3072,73.1812,1,0,0,0,0,0,0,1,1,0,1,1,0,0,1,1,0,0,0,1,1,1,0
412,Gujarat,Vadodara,390004,22.3072,73.1812,0,1,1,0,0,1,0,0,1,1,1,0,1,1,0,1,1,0,0,1,1,0,1
413,Gujarat,Bhavnagar,364005,21.7645,72.1519,1,0,1,0,1,0,1,1,1,1,1,1,1,0,0,1,1,1,1,1,0,1,1
414,Gujarat,Ahmedabad,380001,23.0225,72.5714,0,0,0,1,1,1,1,0,1,1,0,1,1,0,1,1,0,0,1,1,1,1,0
415,Gujarat,Vadodara,390005,22.3072,73.1812,1,1,1,0,0,0,0,0,0,0,0,0,0,0,1,0,1,1,0,0,1,0,0
416,Gujarat,Surat,395004,21.1702,72.8311,1,1,0,0,0,0,1,1,1,1,0,0,1,1,1,1,0,1,0,1,0,1,1
417,Gujarat,Vadodara,390001,22.3072,73.1812,1,1,1,1,0,1,0,0,0,1,1,1,0,0,0,1,0,1,0,0,0,1,1
418,Gujarat,Surat,395004,21.1702,72.8311,1,0,1,1,0,0,1,0,1,1,1,1,0,0,0,1,0,1,1,0,0,0,1
419,Gujarat,Bhavnagar,364004,21.7645,72.1519,0,0,0,0,1,0,0,1,1,1,1,1,1,0,0,1,0,0,0,0,0,1,0
420,Gujarat,Rajkot,360003,22.3039,70.8022,0,0,0,1,1,1,0,1,1,1,0,0,0,0,0,1,1,1,1,1,1,1,0
421,Gujarat,Surat,395005,21.1702,72.8311,0,0,0,1,0,1,1,1,1,1,0,1,0,1,1,1,0,0,0,0,0,1,1
422,Gujarat,Bhavnagar,364004,21.7645,72.1519,1,0,0,0,1,1,0,0,1,1,0,0,0,0,1,1,1,1,0,0,1,1,0
423,Gujarat,Vadodara,390001,22.3072,73.1812,1,0,0,1,0,1,0,1,1,0,0,1,1,1,0,1,1,1,1,0,1,1,1
424,Gujarat,Rajkot,360001,22.3039,70.8022,1,0,1,0,0,1,1,1,0,0,1,1,0,1,0,0,1,0,1,1,0,1,0
425,Gujarat,Surat,395001,21.1702,72.8311,1,1,1,1,1,1,0,1,0,0,1,0,0,0,0,1,0,1,1,0,1,1,1
426,Gujarat,Bhavnagar,364002,21.7645,72.1519,1,0,1,0,0,1,1,0,1,0,1,0,1,0,0,1,0,1,1,0,1,0,0
427,Gujarat,Surat,395001,21.1702,72.8311,1,0,1,1,0,0,0,0,0,1,0,0,1,1,1,0,0,1,1,0,0,0,0
428,Gujarat,Vadodara,390003,22.3072,73.1812,1,0,1,1,1,0,1,0,1,0,0,1,0,1,1,1,1,1,1,1,0,1,0
429,Gujarat,Rajkot,360003,22.3039,70.8022,1,1,0,0,1,1,1,0,0,0,0,0,1,1,0,0,1,1,1,1,1,1,1
430,Gujarat,Vadodara,390004,22.3072,73.1812,1,1,0,1,0,1,0,0,1,1,1,0,1,1,1,1,1,0,0,0,0,1,0
431,Gujarat,Rajkot,360003,22.3039,70.8022,0,1,1,0,1,0,1,0,0,1,1,1,0,0,1,0,0,0,0,0,1,1,1
432,Gujarat,Ahmedabad,380001,23.0225,72.5714,0,0,1,1,1,1,0,1,0,1,1,0,0,1,0,0,1,1,1,0,1,0,0
433,Gujarat,Rajkot,360001,22.3039,70.8022,1,1,1,1,0,1,1,0,1,0,0,0,1,1,0,1,0,0,1,1,0,0,1
434,Gujarat,Bhavnagar,364005,21.7645,72.1519,1,1,1,1,0,0,0,1,1,0,0,0,0,0,1,1,1,1,1,1,1,0,1
435,Gujarat,Surat,395001,21.1702,72.8311,1,1,0,1,0,1,0,0,1,1,1,1,0,1,0,0,1,0,1,0,1,0,0
436,Gujarat,Bhavnagar,364003,21.7645,72.1519,1,0,1,0,0,0,0,0,1,0,1,1,0,0,0,0,1,0,0,1,1,1,1
437,Gujarat,Surat,395003,21.1702,72.8311,0,1,0,0,1,1,0,1,0,1,1,0,0,0,1,1,0,1,0,0,0,1,0
438,Gujarat,Rajkot,360003,22.3039,70.8022,0,0,1,1,0,1,1,1,0,0,1,1,0,0,0,1,1,0,1,0,0,1,1
439,Gujarat,Bhavnagar,364005,21.7645,72.1519,1,0,0,1,0,0,1,0,0,1,1,1,1,1,1,1,0,0,0,0,0,0,1
440,Gujarat,Ahmedabad,380002,23.0225,72.5714,1,1,0,1,0,1,0,0,1,0,0,1,1,1,0,0,1,0,0,0,0,0,1
441,Gujarat,Rajkot,360003,22.3039,70.8022,1,1,0,1,1,1,0,0,0,0,0,1,0,0,1,1,1,0,1,0,0,1,1
442,Gujarat,Bhavnagar,364004,21.7645,72.1519,0,1,0,0,0,0,0,0,0,1,0,0,0,0,0,0,0,1,0,1,0,0,1
443,Gujarat,Ahmedabad,380001,23.0225,72.5714,1,0,1,0,1,0,1,1,0,1,0,0,1,0,0,1,0,0,1,1,1,0,0
444,Gujarat,Rajkot,360005,22.3039,70.8022,1,1,1,0,1,0,1,1,0,0,1,1,1,1,1,1,1,1,0,0,0,0,0
445,Gujarat,Vadodara,390005,22.3072,73.1812,1,1,0,1,0,1,1,1,1,0,0,0,1,0,0,1,0,1,0,1,0,0,0
446,Gujarat,Vadodara,390002,22.3072,73.1812,0,1,1,0,1,1,0,1,1,0,1,0,0,0,0,1,0,0,1,1,1,0,1
447,Gujarat,Surat,395004,21.1702,72.8311,1,0,1,1,1,1,0,1,1,1,1,1,1,0,0,1,1,1,1,0,1,1,1
448,Gujarat,Surat,395004,21.1702,72.8311,0,1,0,1,0,1,1,1,1,0,1,0,0,1,1,1,1,1,0,0,0,0,0
449,Gujarat,Surat,395002,21.1702,72.8311,0,1,0,0,0,0,0,0,0,0,0,0,0,1,0,0,1,1,1,0,0,0,1
450,Gujarat,Vadodara,390003,22.3072,73.1812,0,1,1,0,0,0,0,0,0,1,0,1,0,1,0,1,1,1,1,0,1,0,0
451,Gujarat,Rajkot,360003,22.3039,70.8022,1,1,1,0,1,1,0,1,1,1,0,1,0,1,0,0,1,0,1,0,0,0,1
452,Gujarat,Surat,395002,21.1702,72.8311,0,1,1,0,0,0,0,1,0,0,1,1,1,1,1,0,0,1,1,0,0,1,0
453,Gujarat,Surat,395003,21.1702,72.8311,0,1,0,0,1,0,1,1,0,1,0,1,1,0,0,1,1,0,0,0,1,1,0
454,Gujarat,Ahmedabad,380002,23.0225,72.5714,0,1,1,0,0,1,1,1,1,0,1,0,1,1,1,1,1,0,1,0,0,0,0
455,Gujarat,Surat,395004,21.1702,72.8311,1,1,0,0,0,0,0,0,1,0,0,1,0,1,0,1,0,1,1,0,0,0,1
456,Gujarat,Vadodara,390005,22.3072,73.1812,0,0,1,0,0,1,0,1,0,1,1,1,0,1,0,1,0,1,0,0,1,0,1
457,Gujarat,Vadodara,390005,22.3072,73.1812,1,0,0,0,0,0,0,0,0,0,1,0,1,1,1,1,1,0,0,1,0,1,1
458,Gujarat,Rajkot,360003,22.3039,70.8022,0,1,1,1,0,0,1,1,0,1,1,1,0,0,1,0,0,1,0,0,0,1,1
459,Gujarat,Ahmedabad,380003,23.0225,72.5714,0,1,0,0,0,1,0,0,0,0,0,0,0,0,0,1,1,0,1,0,0,0,0
460,Gujarat,Rajkot,360005,22.3039,70.8022,1,0,1,1,0,1,0,0,1,0,1,1,0,0,0,1,0,0,0,0,1,0,0
461,Gujarat,Rajkot,360005,22.3039,70.8022,0,0,0,1,1,1,1,1,0,0,0,1,1,0,0,0,1,1,1,0,1,0,0
462,Gujarat,Surat,395004,21.1702,72.8311,0,1,0,0,0,0,0,1,0,1,1,0,1,0,0,1,1,0,0,0,1,1,0
463,Gujarat,Ahmedabad,380001,23.0225,72.5714,1,0,0,0,0,0,0,1,1,1,0,1,1,0,0,0,1,0,1,0,1,1,0
464,Gujarat,Ahmedabad,380003,23.0225,72.5714,0,0,0,0,1,1,1,0,1,1,0,0,0,0,1,0,0,0,0,1,1,0,1
465,Gujarat,Surat,395005,21.1702,72.8311,1,0,0,0,1,1,0,0,0,1,1,0,0,0,0,1,1,1,1,0,0,1,1
466,Gujarat,Rajkot,360001,22.3039,70.8022,0,0,0,0,0,0,1,0,1,1,0,1,1,1,0,1,1,0,0,0,0,1,1
467,Gujarat,Surat,395005,21.1702,72.8311,0,1,0,0,0,1,0,0,0,1,0,1,1,0,1,1,0,1,1,0,1,0,0
468,Gujarat,Ahmedabad,380003,23.0225,72.5714,1,1,1,1,1,0,1,0,0,0,0,0,1,0,1,1,0,0,0,1,0,1,0
469,Gujarat,Vadodara,390003,22.3072,73.1812,0,0,1,1,0,1,0,0,0,1,1,1,0,1,1,0,1,0,1,1,0,0,1
470,Gujarat,Ahmedabad,380005,23.0225,72.5714,0,1,1,0,1,1,1,1,1,1,1,0,1,0,1,0,1,0,1,1,1,1,0
471,Gujarat,Vadodara,390004,22.3072,73.1812,0,0,1,1,1,0,0,1,1,1,0,0,0,1,0,0,0,0,1,0,1,1,1
472,Gujarat,Bhavnagar,364003,21.7645,72.1519,0,0,1,0,0,0,1,1,0,0,0,0,0,1,0,1,1,0,0,0,0,1,1
473,Gujarat,Surat,395005,21.1702,72.8311,0,0,1,1,1,0,1,1,0,1,1,1,1,1,0,0,1,1,0,0,0,1,1
474,Gujarat,Bhavnagar,364002,21.7645,72.1519,1,0,0,1,0,0,1,1,1,1,1,0,0,1,1,1,1,0,0,0,0,1,0
475,Gujarat,Vadodara,390004,22.3072,73.1812,0,0,1,0,0,0,0,0,0,0,1,0,1,0,1,1,0,0,1,0,0,0,0
476,Gujarat,Ahmedabad,380003,23.0225,72.5714,0,0,1,0,1,0,1,1,1,0,1,0,0,0,0,0,0,1,0,0,1,1,1
477,Gujarat,Rajkot,360003,22.3039,70.8022,0,0,1,1,1,1,0,1,0,0,0,1,1,0,0,0,1,1,0,1,1,0,0
478,Gujarat,Rajkot,360003,22.3039,70.8022,0,0,0,1,0,1,1,1,1,1,0,1,0,1,0,1,1,0,1,0,1,1,0
479,Gujarat,Rajkot,360003,22.3039,70.8022,0,0,0,1,0,0,0,0,1,0,1,1,1,0,1,1,1,1,0,1,0,1,1
480,Gujarat,Ahmedabad,380005,23.0225,72.5714,0,0,0,0,0,1,1,0,1,1,1,0,1,0,0,0,0,1,0,0,1,0,0
481,Gujarat,Bhavnagar,364002,21.7645,72.1519,1,0,1,0,1,1,1,1,0,1,1,0,0,1,0,1,1,0,1,1,1,1,1
482,Gujarat,Bhavnagar,364002,21.7645,72.1519,0,0,0,0,0,1,0,1,1,0,1,1,1,0,1,1,0,1,0,0,1,0,1
483,Gujarat,Bhavnagar,364003,21.7645,72.1519,0,1,0,1,1,0,1,0,0,1,1,1,1,0,0,0,0,1,1,0,1,1,0
484,Gujarat,Rajkot,360005,22.3039,70.8022,1,1,1,1,0,0,0,0,0,0,0,0,0,1,1,1,0,1,0,1,0,1,1
485,Gujarat,Ahmedabad,380004,23.0225,72.5714,1,0,1,1,0,0,1,0,0,0,1,1,0,1,0,0,0,0,0,1,1,0,0
486,Gujarat,Vadodara,390003,22.3072,73.1812,1,0,1,1,0,0,0,1,0,1,0,0,1,1,0,1,0,0,1,1,0,1,1
487,Gujarat,Surat,395004,21.1702,72.8311,1,1,0,0,1,1,1,1,1,0,0,1,0,0,0,0,0,0,1,0,0,0,1
488,Gujarat,Ahmedabad,380002,23.0225,72.5714,0,1,1,1,0,1,0,0,1,0,1,0,0,1,1,1,0,1,1,1,0,1,1
489,Gujarat,Ahmedabad,380003,23.0225,72.5714,0,1,0,0,1,0,0,1,1,1,0,1,1,1,0,1,1,0,0,0,0,0,1
490,Gujarat,Ahmedabad,380001,23.0225,72.5714,1,1,1,0,1,0,0,1,1,0,1,0,1,0,0,1,0,1,0,1,0,1,1
491,Gujarat,Vadodara,390001,22.3072,73.1812,0,0,1,1,1,1,1,0,0,1,1,1,0,0,1,1,0,1,0,1,0,1,1
492,Gujarat,Vadodara,390002,22.3072,73.1812,1,1,0,1,1,0,0,1,0,0,0,1,0,0,0,1,1,0,1,0,0,0,1
493,Gujarat,Vadodara,390005,22.3072,73.1812,0,0,0,1,1,1,0,0,0,1,0,0,1,1,0,0,1,0,1,1,1,1,0
494,Gujarat,Ahmedabad,380003,23.0225,72.5714,0,0,0,1,0,0,1,1,1,1,0,0,1,0,0,0,0,0,1,1,0,0,0
495,Gujarat,Vadodara,390003,22.3072,73.1812,1,1,1,1,1,1,1,0,1,0,0,1,0,1,1,1,0,0,1,0,1,0,1
496,Gujarat,Surat,395005,21.1702,72.8311,1,0,1,1,1,0,0,1,1,0,1,1,0,1,1,1,0,0,1,0,0,1,1
497,Gujarat,Rajkot,360001,22.3039,70.8022,0,1,0,1,1,1,0,0,0,0,1,1,1,0,1,1,0,0,1,1,1,0,1
498,Gujarat,Vadodara,390004,22.3072,73.1812,0,0,0,1,0,1,0,1,0,0,0,1,0,1,1,0,1,0,0,1,0,1,1
499,Gujarat,Vadodara,390002,22.3072,73.1812,0,0,0,1,1,1,1,0,0,1,1,0,1,1,0,1,1,1,1,0,0,0,1
500,Gujarat,Bhavnagar,364004,21.7645,72.1519,1,0,1,1,0,1,0,0,1,0,0,0,0,1,0,1,0,0,1,1,0,1,1
501,Karnataka,Mysuru,570002,12.2958,76.6394,1,1,0,0,0,1,0,1,0,0,1,1,1,1,0,0,0,0,0,0,0,1,1
502,Karnataka,Belagavi,590004,15.8497,74.4977,1,0,1,1,1,0,0,0,0,1,0,1,0,0,0,1,0,0,0,1,1,0,1
503,Karnataka,Mysuru,570004,12.2958,76.6394,0,1,1,0,1,1,1,1,0,0,0,0,0,0,0,0,0,0,1,1,1,0,1
504,Karnataka,Belagavi,590001,15.8497,74.4977,1,1,0,1,1,1,1,1,0,0,1,0,1,0,0,0,1,0,0,0,0,0,0
505,Karnataka,Belagavi,590004,15.8497,74.4977,1,1,1,0,1,0,0,1,1,1,1,1,0,1,0,0,1,0,1,0,1,0,1
506,Karnataka,Mangaluru,575002,12.9141,74.856,0,1,1,1,1,0,1,1,1,0,1,1,1,0,1,1,0,1,0,1,1,1,1
507,Karnataka,Mysuru,570004,12.2958,76.6394,0,0,0,0,0,1,0,1,1,0,1,0,0,0,0,0,0,1,1,1,1,1,1
508,Karnataka,Mangaluru,575003,12.9141,74.856,0,0,1,1,1,0,0,0,0,1,0,0,0,0,1,0,1,1,0,0,0,1,1
509,Karnataka,Bengaluru,560002,12.9716,77.5946,1,0,0,1,0,0,1,0,0,0,1,0,1,0,1,0,0,0,1,1,1,0,0
510,Karnataka,Belagavi,590002,15.8497,74.4977,0,0,1,1,1,0,1,0,1,0,1,1,0,0,1,1,1,1,1,0,1,0,1
511,Karnataka,Hubballi,580003,15.3647,75.124,0,0,0,1,1,0,0,1,1,0,1,0,1,1,1,1,1,1,0,0,0,1,0
512,Karnataka,Mysuru,570005,12.2958,76.6394,1,0,0,1,1,0,1,1,1,0,0,0,0,0,1,1,1,1,1,1,1,1,0
513,Karnataka,Hubballi,580004,15.3647,75.124,1,0,0,1,0,1,0,0,1,1,1,1,1,0,0,0,1,1,0,1,0,1,1
514,Karnataka,Mangaluru,575003,12.9141,74.856,0,0,1,0,1,1,1,0,1,0,1,0,0,0,1,1,0,1,0,0,0,0,1
515,Karnataka,Bengaluru,560002,12.9716,77.5946,1,1,1,1,1,1,0,0,1,1,1,1,1,0,0,1,1,0,0,0,1,1,1
516,Karnataka,Mangaluru,575002,12.9141,74.856,0,1,1,0,1,1,0,1,1,1,0,1,1,0,0,0,1,0,1,0,1,1,1
517,Karnataka,Belagavi,590005,15.8497,74.4977,1,0,0,0,1,0,0,0,0,1,0,0,1,0,1,0,1,0,0,1,1,0,1
518,Karnataka,Belagavi,590005,15.8497,74.4977,0,0,0,1,1,1,1,0,0,1,1,1,0,0,0,1,1,1,1,1,1,0,0
519,Karnataka,Mysuru,570005,12.2958,76.6394,1,0,1,0,0,1,1,0,0,0,1,0,1,1,0,1,0,0,0,0,1,0,1
520,Karnataka,Belagavi,590005,15.8497,74.4977,1,1,1,0,1,0,1,0,1,1,1,0,0,1,1,0,1,0,1,1,1,0,0
521,Karnataka,Mangaluru,575003,12.9141,74.856,1,1,0,1,1,1,0,1,1,1,0,0,0,1,1,1,1,0,1,0,0,1,0
522,Karnataka,Mangaluru,575001,12.9141,74.856,0,0,0,1,1,0,1,0,1,0,0,0,1,0,1,1,1,1,1,1,1,0,0
523,Karnataka,Hubballi,580004,15.3647,75.124,1,1,1,1,0,0,0,0,1,0,0,0,1,1,1,0,0,0,0,1,0,1,0
524,Karnataka,Bengaluru,560005,12.9716,77.5946,1,0,1,1,0,0,1,1,1,1,0,0,0,0,0,1,0,1,0,0,0,0,0
525,Karnataka,Mysuru,570003,12.2958,76.6394,0,0,0,1,1,1,1,0,0,1,0,0,0,1,0,1,1,1,1,0,1,1,1
526,Karnataka,Hubballi,580004,15.3647,75.124,1,1,0,1,1,1,0,1,0,1,0,0,0,0,0,1,0,0,0,0,0,0,0
527,Karnataka,Belagavi,590001,15.8497,74.4977,0,1,0,1,0,0,1,1,0,1,0,1,1,1,0,1,1,1,1,0,1,1,0
528,Karnataka,Mangaluru,575005,12.9141,74.856,0,1,1,0,1,1,0,1,0,0,1,0,0,0,0,0,0,1,1,1,0,1,1
529,Karnataka,Hubballi,580004,15.3647,75.124,0,0,1,0,1,0,0,0,1,0,1,0,0,0,0,1,0,0,0,0,1,1,0
530,Karnataka,Mangaluru,575004,12.9141,74.856,0,0,1,0,1,1,1,0,0,1,0,0,0,0,1,0,0,0,0,1,0,1,0
531,Karnataka,Belagavi,590004,15.8497,74.4977,1,0,0,0,0,0,1,0,0,1,1,1,0,1,1,0,0,1,0,1,1,0,0
532,Karnataka,Mysuru,570004,12.2958,76.6394,0,1,1,0,1,1,0,0,0,0,1,1,0,0,0,0,0,0,0,1,1,1,1
533,Karnataka,Hubballi,580001,15.3647,75.124,1,1,1,1,1,1,0,1,0,0,1,0,0,0,0,0,1,1,0,0,0,0,0
534,Karnataka,Mysuru,570002,12.2958,76.6394,1,1,0,1,0,0,1,0,1,1,1,1,0,1,0,0,0,0,1,1,0,1,0
535,Karnataka,Belagavi,590003,15.8497,74.4977,1,0,1,0,1,0,0,0,1,0,0,1,1,0,1,1,1,0,1,1,0,0,1
536,Karnataka,Bengaluru,560003,12.9716,77.5946,0,0,1,0,1,1,1,0,0,0,1,1,0,0,1,0,1,1,0,1,1,0,1
537,Karnataka,Belagavi,590002,15.8497,74.4977,0,0,1,0,1,0,1,0,0,1,1,1,0,1,1,0,1,1,0,0,0,1,1
538,Karnataka,Bengaluru,560003,12.9716,77.5946,0,0,0,1,0,1,0,1,0,0,1,1,1,0,1,0,1,1,0,0,0,0,0
539,Karnataka,Mysuru,570001,12.2958,76.6394,1,0,1,1,0,1,1,1,0,0,1,0,0,1,1,0,0,0,0,1,0,1,0
540,Karnataka,Mysuru,570002,12.2958,76.6394,1,0,0,0,1,1,1,1,0,0,0,0,1,1,1,0,1,1,1,0,0,1,1
541,Karnataka,Mysuru,570004,12.2958,76.6394,0,1,1,0,1,0,1,1,1,0,0,0,0,0,1,0,0,1,1,1,0,1,0
542,Karnataka,Bengaluru,560001,12.9716,77.5946,0,0,0,0,1,1,1,1,1,0,0,1,1,1,1,0,1,1,1,0,0,0,1
543,Karnataka,Mysuru,570005,12.2958,76.6394,0,0,1,1,1,1,0,0,1,1,0,1,1,0,1,1,0,1,0,0,0,1,0
544,Karnataka,Belagavi,590003,15.8497,74.4977,0,1,1,0,1,1,1,1,0,0,1,1,1,1,0,0,0,1,0,1,1,1,1
545,Karnataka,Mangaluru,575003,12.9141,74.856,0,1,1,0,1,1,0,1,1,0,0,1,1,0,0,1,1,0,1,0,1,1,1
546,Karnataka,Belagavi,590004,15.8497,74.4977,1,0,1,0,0,0,1,0,0,0,1,0,0,1,0,0,1,0,0,1,1,0,0
547,Karnataka,Mysuru,570005,12.2958,76.6394,1,0,1,0,0,1,0,0,0,0,1,1,1,1,1,0,1,0,1,1,0,0,0
548,Karnataka,Mangaluru,575001,12.9141,74.856,1,1,1,0,1,0,0,1,1,0,0,0,1,1,0,1,0,0,0,0,0,0,1
549,Karnataka,Bengaluru,560004,12.9716,77.5946,0,1,0,0,1,0,0,1,1,1,0,1,0,0,0,0,1,1,0,0,0,1,1
550,Karnataka,Hubballi,580004,15.3647,75.124,0,0,1,0,0,0,1,0,1,0,0,1,1,0,1,1,0,0,1,0,1,0,1
551,Karnataka,Bengaluru,560004,12.9716,77.5946,1,0,0,1,0,1,1,1,0,0,1,0,0,0,1,0,1,0,1,1,1,0,1
552,Karnataka,Mangaluru,575005,12.9141,74.856,0,0,1,0,1,0,1,0,0,0,1,1,1,0,1,0,0,1,0,1,1,1,1
553,Karnataka,Mangaluru,575005,12.9141,74.856,1,0,0,1,0,0,0,1,0,1,1,0,0,1,0,0,0,1,1,0,1,1,1
554,Karnataka,Hubballi,580004,15.3647,75.124,1,0,1,1,1,0,1,0,1,1,0,1,0,1,1,1,1,1,0,0,0,0,0
555,Karnataka,Mysuru,570004,12.2958,76.6394,0,1,0,1,1,0,0,0,1,0,1,1,0,1,0,1,1,0,0,1,1,1,0
556,Karnataka,Belagavi,590001,15.8497,74.4977,0,0,1,0,1,1,0,0,0,1,1,0,1,1,0,0,1,1,1,0,1,0,1
557,Karnataka,Belagavi,590005,15.8497,74.4977,1,0,1,0,0,1,1,0,1,0,1,0,1,1,0,1,1,0,0,0,1,0,1
558,Karnataka,Bengaluru,560005,12.9716,77.5946,0,0,0,0,0,1,1,0,1,1,1,0,1,0,0,1,0,0,1,1,0,1,1
559,Karnataka,Mysuru,570005,12.2958,76.6394,0,1,0,1,0,0,0,0,0,0,0,1,1,0,1,1,1,1,0,0,1,0,0
560,Karnataka,Belagavi,590004,15.8497,74.4977,0,0,0,1,0,0,1,1,0,0,0,1,1,1,1,0,1,1,0,0,0,1,1
561,Karnataka,Mangaluru,575003,12.9141,74.856,0,1,0,0,1,0,1,1,1,0,1,1,1,1,0,1,0,1,1,1,0,1,1
562,Karnataka,Mangaluru,575001,12.9141,74.856,1,1,0,1,1,1,0,0,0,1,0,0,1,1,0,0,1,0,1,1,1,0,0
563,Karnataka,Hubballi,580005,15.3647,75.124,0,0,0,0,0,0,1,1,1,1,0,1,1,0,0,0,1,0,0,0,1,0,1
564,Karnataka,Mysuru,570004,12.2958,76.6394,1,0,0,0,0,0,0,0,0,1,0,1,0,0,1,0,0,1,1,1,0,1,1
565,Karnataka,Belagavi,590003,15.8497,74.4977,1,0,0,0,1,0,0,1,1,0,1,1,1,0,1,1,0,0,1,1,1,0,0
566,Karnataka,Bengaluru,560001,12.9716,77.5946,0,0,0,1,0,0,0,0,1,0,0,0,0,0,0,0,0,1,1,1,0,0,1
567,Karnataka,Hubballi,580005,15.3647,75.124,0,0,0,0,0,0,0,0,0,1,0,0,0,0,1,0,0,0,0,1,0,0,0
568,Karnataka,Mysuru,570004,12.2958,76.6394,0,1,1,0,1,1,0,1,0,0,0,0,1,0,0,0,1,1,0,1,1,1,1
569,Karnataka,Bengaluru,560004,12.9716,77.5946,0,1,0,0,1,0,0,1,0,1,0,1,0,0,0,1,1,1,0,0,0,0,0
570,Karnataka,Belagavi,590002,15.8497,74.4977,1,0,1,0,0,1,0,0,0,0,1,1,1,0,1,0,0,0,1,0,0,1,0
571,Karnataka,Belagavi,590001,15.8497,74.4977,1,0,0,0,0,1,1,1,1,1,0,0,1,1,0,0,0,1,1,0,1,0,0
572,Karnataka,Belagavi,590005,15.8497,74.4977,0,0,0,0,0,0,0,0,1,1,1,1,1,0,1,1,0,0,1,0,0,1,0
573,Karnataka,Bengaluru,560002,12.9716,77.5946,1,1,0,0,0,1,1,0,0,0,1,0,0,1,1,0,1,1,0,0,0,0,1
574,Karnataka,Belagavi,590003,15.8497,74.4977,0,1,1,1,1,1,1,0,0,0,1,0,1,0,1,0,1,1,1,1,1,1,0
575,Karnataka,Bengaluru,560005,12.9716,77.5946,0,1,0,0,0,0,0,1,0,1,1,0,1,1,0,1,1,0,0,0,0,0,0
576,Karnataka,Hubballi,580001,15.3647,75.124,0,1,0,1,0,1,1,0,0,0,1,0,0,0,1,0,0,1,0,0,0,0,1
577,Karnataka,Hubballi,580003,15.3647,75.124,0,0,1,1,1,1,1,1,0,1,1,0,1,1,1,0,0,0,0,0,1,1,1
578,Karnataka,Mysuru,570005,12.2958,76.6394,1,0,1,1,1,1,0,1,1,0,0,0,0,0,1,1,0,1,0,1,1,0,0
579,Karnataka,Mangaluru,575001,12.9141,74.856,0,0,0,0,1,1,1,0,0,1,1,0,1,0,0,1,0,1,0,1,0,1,1
580,Karnataka,Mysuru,570003,12.2958,76.6394,1,1,0,1,0,0,0,0,0,0,1,1,1,0,0,1,1,1,0,0,0,1,0
581,Karnataka,Bengaluru,560002,12.9716,77.5946,1,0,0,0,1,0,0,1,1,0,1,1,0,1,1,1,0,0,1,0,1,0,1
582,Karnataka,Mysuru,570002,12.2958,76.6394,1,0,1,1,1,1,1,0,0,0,0,1,0,0,0,1,1,1,0,1,0,1,0
583,Karnataka,Mangaluru,575001,12.9141,74.856,1,1,1,1,1,0,0,1,0,1,0,0,1,1,0,1,1,1,1,1,1,0,1
584,Karnataka,Bengaluru,560004,12.9716,77.5946,1,1,0,0,0,0,0,0,1,1,0,1,0,0,1,0,1,0,1,0,1,1,1
585,Karnataka,Mysuru,570001,12.2958,76.6394,1,1,0,1,0,1,1,0,1,0,0,0,0,1,0,1,0,1,0,1,0,1,1
586,Karnataka,Belagavi,590001,15.8497,74.4977,1,0,0,0,0,1,0,1,0,1,1,1,0,1,1,0,0,1,0,0,0,1,0
587,Karnataka,Belagavi,590003,15.8497,74.4977,0,0,1,0,0,0,0,1,0,0,1,1,0,1,0,0,1,1,1,1,0,1,0
588,Karnataka,Hubballi,580002,15.3647,75.124,0,1,0,0,1,1,0,1,1,1,0,0,1,0,0,1,0,0,0,1,0,0,0
589,Karnataka,Hubballi,580003,15.3647,75.124,1,1,1,1,1,1,0,1,0,0,0,0,1,0,0,1,1,0,0,1,0,1,1
590,Karnataka,Bengaluru,560003,12.9716,77.5946,0,0,0,1,1,0,1,1,0,1,1,0,1,0,1,1,1,1,1,1,1,0,0
591,Karnataka,Mysuru,570004,12.2958,76.6394,1,1,0,1,0,1,1,0,1,1,0,0,1,0,1,1,1,1,0,0,1,0,0
592,Karnataka,Mysuru,570002,12.2958,76.6394,0,1,1,0,0,0,0,0,1,1,0,1,0,1,0,0,0,1,0,1,0,1,1
593,Karnataka,Hubballi,580001,15.3647,75.124,0,0,1,1,1,1,1,0,1,0,0,1,0,1,0,0,0,0,1,0,0,1,0
594,Karnataka,Bengaluru,560005,12.9716,77.5946,0,0,1,1,0,0,0,0,0,0,0,1,0,0,1,1,1,0,1,1,1,1,1
595,Karnataka,Mysuru,570004,12.2958,76.6394,1,0,1,0,0,1,1,1,0,1,1,0,0,0,1,1,0,0,0,1,0,1,0
596,Karnataka,Bengaluru,560005,12.9716,77.5946,1,1,0,0,0,0,1,0,0,0,1,1,1,1,1,0,0,1,0,1,1,0,1
597,Karnataka,Bengaluru,560005,12.9716,77.5946,1,0,0,1,1,1,1,0,1,1,0,0,0,0,0,1,1,1,0,1,1,0,1
598,Karnataka,Mysuru,570004,12.2958,76.6394,1,1,1,1,1,1,0,1,1,1,0,0,0,1,1,1,0,1,0,0,1,1,0
599,Karnataka,Bengaluru,560003,12.9716,77.5946,1,0,0,0,0,0,1,1,1,1,0,1,0,0,1,0,1,1,1,0,0,1,0
600,Karnataka,Bengaluru,560001,12.9716,77.5946,0,1,0,1,0,1,0,0,0,0,0,0,0,0,1,1,0,1,0,0,1,1,1
601,Rajasthan,Ajmer,305003,26.4499,74.6399,0,0,1,1,0,1,0,1,0,1,1,0,1,1,1,1,1,1,0,0,1,0,0
602,Rajasthan,Jodhpur,342004,26.2389,73.0243,0,0,1,1,1,0,0,1,0,0,0,1,1,0,1,0,0,1,1,0,1,0,0
603,Rajasthan,Jodhpur,342003,26.2389,73.0243,0,0,0,1,1,0,1,1,0,1,0,1,0,0,1,1,1,1,1,0,1,1,1
604,Rajasthan,Jaipur,302004,26.9124,75.7873,0,1,1,1,0,0,0,0,0,0,1,0,1,1,0,1,1,0,1,1,0,0,1
605,Rajasthan,Ajmer,305002,26.4499,74.6399,1,0,1,1,0,1,1,1,0,0,1,0,0,1,1,1,0,0,0,1,0,1,1
606,Rajasthan,Ajmer,305004,26.4499,74.6399,1,1,0,0,0,1,1,1,1,0,0,1,0,0,0,1,0,1,1,1,0,0,0
607,Rajasthan,Kota,324004,25.2138,75.8648,0,1,0,0,0,0,0,1,1,1,1,1,0,1,1,0,1,0,0,1,1,0,1
608,Rajasthan,Kota,324005,25.2138,75.8648,0,0,1,0,0,1,1,0,1,1,1,0,0,0,1,1,1,0,0,0,1,0,1
609,Rajasthan,Kota,324004,25.2138,75.8648,0,0,1,0,0,1,1,1,0,1,1,0,0,0,0,0,0,0,1,1,0,0,0
610,Rajasthan,Jodhpur,342003,26.2389,73.0243,1,1,0,0,0,0,1,0,0,1,0,0,1,0,0,1,1,1,1,1,1,1,0
611,Rajasthan,Jaipur,302004,26.9124,75.7873,1,0,1,0,0,1,0,0,0,1,0,1,0,1,0,0,1,1,1,1,0,0,1
612,Rajasthan,Kota,324002,25.2138,75.8648,1,1,1,0,1,0,1,0,0,0,0,1,1,1,1,1,0,0,1,1,1,1,1
613,Rajasthan,Udaipur,313004,24.5854,73.7125,0,0,0,1,0,1,0,0,1,1,1,0,1,1,1,0,0,0,1,0,0,1,1
614,Rajasthan,Kota,324003,25.2138,75.8648,0,0,1,1,0,1,1,0,1,1,0,1,1,1,0,1,0,0,1,0,1,1,1
615,Rajasthan,Udaipur,313003,24.5854,73.7125,0,1,1,0,1,0,0,0,0,0,1,1,1,1,1,1,0,1,1,1,1,0,1
616,Rajasthan,Jaipur,302001,26.9124,75.7873,1,1,1,0,1,1,0,0,0,0,0,0,0,1,1,0,0,1,0,0,0,0,0
617,Rajasthan,Jodhpur,342005,26.2389,73.0243,0,1,0,1,1,1,1,0,0,1,1,1,0,1,1,0,0,1,1,1,1,0,0
618,Rajasthan,Kota,324001,25.2138,75.8648,1,1,1,0,0,0,0,0,1,0,1,0,0,0,0,1,0,1,0,0,0,0,0
619,Rajasthan,Ajmer,305002,26.4499,74.6399,0,1,0,1,0,1,0,0,1,1,1,0,0,0,1,0,0,1,0,1,0,0,1
620,Rajasthan,Udaipur,313002,24.5854,73.7125,1,1,1,1,1,1,1,1,1,1,0,1,1,1,1,1,1,1,0,1,0,1,1
621,Rajasthan,Udaipur,313004,24.5854,73.7125,1,1,0,0,1,0,0,1,1,0,1,0,1,0,0,0,0,0,0,1,0,1,1
622,Rajasthan,Kota,324001,25.2138,75.8648,1,0,0,1,1,1,0,0,1,1,0,0,0,1,1,1,1,0,1,1,1,0,0
623,Rajasthan,Jodhpur,342003,26.2389,73.0243,1,1,1,0,1,0,1,0,1,0,0,0,0,0,0,1,1,1,0,0,0,0,1
624,Rajasthan,Udaipur,313004,24.5854,73.7125,1,0,0,1,0,1,1,1,0,0,0,1,1,0,0,0,0,1,0,0,1,0,1
625,Rajasthan,Jaipur,302003,26.9124,75.7873,1,0,1,0,1,1,1,1,0,1,1,0,1,1,1,0,1,1,1,0,1,1,1
626,Rajasthan,Jodhpur,342004,26.2389,73.0243,1,0,1,0,0,0,0,0,0,0,1,1,1,1,0,1,0,1,1,1,1,0,1
627,Rajasthan,Jaipur,302002,26.9124,75.7873,0,1,1,1,1,1,0,1,1,1,0,1,0,1,1,1,1,0,1,0,1,1,0
628,Rajasthan,Jaipur,302002,26.9124,75.7873,0,1,0,1,1,0,1,1,0,1,1,0,0,0,0,1,1,1,0,0,0,1,1
629,Rajasthan,Udaipur,313002,24.5854,73.7125,0,0,1,1,0,1,1,1,0,0,1,1,0,1,1,1,0,0,0,1,1,0,0
630,Rajasthan,Udaipur,313003,24.5854,73.7125,0,0,1,1,0,0,1,1,1,0,1,0,0,1,0,1,0,0,0,0,1,1,0
631,Rajasthan,Ajmer,305002,26.4499,74.6399,0,0,1,0,1,1,0,0,0,0,1,1,0,0,1,1,1,0,0,0,1,1,1
632,Rajasthan,Kota,324003,25.2138,75.8648,0,0,1,0,1,0,1,1,0,1,1,1,0,1,1,1,1,0,1,0,0,0,1
633,Rajasthan,Kota,324004,25.2138,75.8648,0,1,1,1,1,1,0,1,1,0,0,1,0,1,1,0,0,1,1,0,1,0,0
634,Rajasthan,Udaipur,313003,24.5854,73.7125,1,0,1,0,1,1,0,1,1,0,1,1,0,1,1,0,1,0,1,0,0,0,1
635,Rajasthan,Udaipur,313002,24.5854,73.7125,1,1,1,0,0,0,1,1,1,1,0,1,1,0,1,1,0,1,1,1,0,0,1
636,Rajasthan,Jaipur,302002,26.9124,75.7873,0,0,1,0,0,1,1,1,1,1,0,0,1,1,0,1,0,1,0,0,0,0,0
637,Rajasthan,Jodhpur,342003,26.2389,73.0243,1,1,1,1,1,0,0,0,1,0,1,0,1,0,1,0,0,0,1,1,1,0,0
638,Rajasthan,Jodhpur,342001,26.2389,73.0243,1,1,1,0,1,0,0,0,0,1,0,0,0,1,0,0,1,1,1,0,1,1,1
639,Rajasthan,Jodhpur,342005,26.2389,73.0243,1,0,1,1,1,0,0,1,1,0,0,1,1,0,1,0,0,1,1,0,0,0,1
640,Rajasthan,Kota,324003,25.2138,75.8648,0,1,0,0,1,1,0,1,0,0,0,0,0,0,0,1,0,0,0,0,0,1,0
641,Rajasthan,Kota,324002,25.2138,75.8648,0,1,1,1,1,0,0,1,0,0,1,0,1,0,0,1,0,1,1,0,0,1,0
642,Rajasthan,Ajmer,305003,26.4499,74.6399,1,0,0,1,0,1,0,1,0,0,1,0,1,0,1,0,0,0,1,1,0,0,1
643,Rajasthan,Ajmer,305001,26.4499,74.6399,1,0,0,0,0,1,1,0,1,0,1,0,1,1,1,0,1,1,1,1,1,0,0
644,Rajasthan,Jaipur,302003,26.9124,75.7873,1,1,0,1,1,0,1,0,0,1,0,1,0,0,0,1,1,1,0,1,1,0,1
645,Rajasthan,Kota,324002,25.2138,75.8648,1,1,1,1,1,1,1,1,0,0,1,0,1,1,1,0,0,0,0,1,1,0,0
646,Rajasthan,Jaipur,302004,26.9124,75.7873,0,1,1,0,0,0,1,1,1,0,1,1,0,1,0,0,1,0,0,1,0,1,1
647,Rajasthan,Udaipur,313002,24.5854,73.7125,1,1,0,1,1,0,1,0,1,1,1,1,1,0,0,0,1,1,0,0,1,0,0
648,Rajasthan,Ajmer,305003,26.4499,74.6399,1,0,1,0,1,1,0,1,0,0,0,1,0,0,1,0,0,0,0,0,1,1,0
649,Rajasthan,Udaipur,313001,24.5854,73.7125,0,1,1,1,1,1,0,0,0,0,0,1,1,0,0,0,1,0,0,1,1,1,0
650,Rajasthan,Jaipur,302005,26.9124,75.7873,1,1,0,0,0,0,1,1,1,1,1,0,0,0,1,1,0,0,0,1,0,1,0
651,Rajasthan,Jaipur,302003,26.9124,75.7873,0,1,0,1,1,0,0,0,1,0,1,0,0,1,0,0,0,0,1,1,1,0,0
652,Rajasthan,Kota,324004,25.2138,75.8648,1,1,1,0,1,0,0,0,1,1,1,1,0,0,1,0,0,0,1,0,0,0,1
653,Rajasthan,Ajmer,305001,26.4499,74.6399,0,0,1,1,0,0,1,0,1,0,0,1,0,1,1,1,0,1,0,0,1,1,1
654,Rajasthan,Jaipur,302003,26.9124,75.7873,0,0,0,0,0,1,0,1,1,0,1,1,0,1,0,0,0,1,0,1,1,1,0
655,Rajasthan,Udaipur,313001,24.5854,73.7125,1,1,0,0,1,1,1,0,1,0,1,1,0,0,0,0,0,1,1,0,1,0,1
656,Rajasthan,Jaipur,302005,26.9124,75.7873,0,0,1,0,0,0,0,1,1,0,0,0,0,1,0,0,1,1,0,0,0,1,1
657,Rajasthan,Ajmer,305003,26.4499,74.6399,1,0,1,0,1,0,1,0,0,0,1,0,1,1,1,1,0,1,1,0,1,0,1
658,Rajasthan,Jodhpur,342001,26.2389,73.0243,1,0,1,0,1,0,1,1,1,1,1,1,1,0,1,0,0,1,0,1,1,1,1
659,Rajasthan,Jaipur,302005,26.9124,75.7873,1,0,1,1,0,1,0,1,0,0,1,1,1,1,0,0,1,1,0,0,0,0,0
660,Rajasthan,Jodhpur,342005,26.2389,73.0243,0,1,0,1,1,0,1,0,0,1,1,0,0,0,1,0,0,1,0,0,1,1,0
661,Rajasthan,Ajmer,305005,26.4499,74.6399,1,1,1,0,1,0,1,1,1,0,1,1,0,0,1,1,1,1,1,0,1,0,1
662,Rajasthan,Jaipur,302004,26.9124,75.7873,1,0,0,0,1,1,0,1,0,1,0,0,1,1,0,0,1,1,0,1,0,1,0
663,Rajasthan,Jodhpur,342005,26.2389,73.0243,1,0,1,0,0,1,0,0,0,1,1,1,0,1,0,1,0,1,0,0,0,0,1
664,Rajasthan,Ajmer,305002,26.4499,74.6399,0,0,0,0,0,1,1,1,0,1,1,0,0,0,0,0,0,0,0,1,1,1,1
665,Rajasthan,Udaipur,313001,24.5854,73.7125,0,0,0,1,1,0,1,1,1,0,1,0,0,0,0,1,1,1,1,0,1,1,0
666,Rajasthan,Udaipur,313002,24.5854,73.7125,1,1,0,1,0,0,1,1,1,0,0,0,1,0,1,0,1,0,1,0,1,0,0
667,Rajasthan,Udaipur,313004,24.5854,73.7125,0,1,1,1,1,0,0,0,0,0,1,1,1,0,1,0,0,0,1,1,1,1,0
668,Rajasthan,Udaipur,313004,24.5854,73.7125,1,0,1,1,1,1,0,0,0,1,1,1,1,1,0,0,1,0,1,1,0,1,0
669,Rajasthan,Udaipur,313005,24.5854,73.7125,1,0,0,0,0,0,1,0,0,0,0,0,0,1,0,1,0,1,1,1,0,1,1
670,Rajasthan,Udaipur,313002,24.5854,73.7125,1,1,1,1,0,0,1,1,0,1,1,0,0,0,1,1,1,0,0,0,1,1,0
671,Rajasthan,Kota,324003,25.2138,75.8648,0,0,0,1,1,0,1,1,1,0,0,0,0,1,1,1,0,1,0,0,1,0,1
672,Rajasthan,Jodhpur,342004,26.2389,73.0243,0,1,1,0,0,1,1,0,1,0,0,0,1,1,1,0,0,0,1,0,0,0,0
673,Rajasthan,Udaipur,313001,24.5854,73.7125,1,1,0,1,1,1,0,1,0,0,0,1,0,1,0,0,1,0,0,1,0,1,1
674,Rajasthan,Jodhpur,342004,26.2389,73.0243,1,1,0,1,0,1,0,1,1,1,0,1,0,0,1,0,0,1,0,0,0,1,0
675,Rajasthan,Kota,324004,25.2138,75.8648,1,0,0,0,0,1,1,0,0,1,1,1,0,1,0,0,1,1,0,0,1,0,1
676,Rajasthan,Jaipur,302004,26.9124,75.7873,1,0,0,1,0,1,1,1,0,1,0,0,0,0,1,0,0,0,1,0,0,1,1
677,Rajasthan,Udaipur,313004,24.5854,73.7125,1,0,0,0,1,0,0,1,0,1,1,1,1,0,1,0,1,1,1,1,1,1,1
678,Rajasthan,Jodhpur,342001,26.2389,73.0243,0,0,1,1,1,1,0,1,1,0,0,0,0,1,0,1,0,0,1,0,1,0,1
679,Rajasthan,Udaipur,313004,24.5854,73.7125,1,1,0,0,1,1,0,1,0,1,0,1,0,0,0,1,0,0,1,1,1,0,0
680,Rajasthan,Jodhpur,342005,26.2389,73.0243,0,0,1,0,0,0,1,1,1,0,0,0,1,0,1,0,1,1,1,0,1,1,0
681,Rajasthan,Udaipur,313002,24.5854,73.7125,1,1,0,0,1,0,1,0,0,1,0,1,1,1,1,0,1,1,0,1,1,0,0
682,Rajasthan,Kota,324003,25.2138,75.8648,0,0,1,0,1,1,0,1,0,0,1,0,1,1,0,0,0,0,1,1,0,1,1
683,Rajasthan,Ajmer,305004,26.4499,74.6399,0,0,1,0,1,0,1,0,1,0,0,0,1,1,1,0,0,1,0,0,1,1,0
684,Rajasthan,Ajmer,305004,26.4499,74.6399,0,0,0,0,0,1,0,0,0,1,1,1,0,1,1,1,1,1,1,1,0,1,0
685,Rajasthan,Jaipur,302002,26.9124,75.7873,1,0,0,0,1,0,1,0,0,1,1,1,1,1,1,0,1,1,0,1,1,0,0
686,Rajasthan,Jaipur,302004,26.9124,75.7873,0,1,1,0,1,1,0,1,0,1,0,0,1,0,0,1,1,1,1,1,0,1,0
687,Rajasthan,Udaipur,313003,24.5854,73.7125,1,1,1,1,0,0,0,1,0,0,0,1,1,0,1,1,1,0,0,1,0,1,0
688,Rajasthan,Udaipur,313001,24.5854,73.7125,1,0,1,0,1,0,1,0,1,1,1,0,0,1,0,0,0,1,1,1,1,0,1
689,Rajasthan,Jodhpur,342004,26.2389,73.0243,0,0,0,1,1,1,1,0,0,1,0,1,1,1,1,0,0,1,1,0,1,0,0
690,Rajasthan,Ajmer,305001,26.4499,74.6399,0,1,0,1,0,0,1,0,0,0,1,1,1,0,0,0,1,1,1,0,0,0,0
691,Rajasthan,Udaipur,313005,24.5854,73.7125,1,0,0,0,1,0,1,0,1,1,1,0,1,1,0,1,0,0,1,0,1,0,0
692,Rajasthan,Udaipur,313005,24.5854,73.7125,1,1,1,1,0,0,1,1,0,1,0,0,0,1,0,1,0,1,0,1,0,1,0
693,Rajasthan,Ajmer,305002,26.4499,74.6399,1,0,0,1,1,1,0,0,0,1,1,1,1,0,0,1,1,1,0,1,1,0,1
694,Rajasthan,Kota,324004,25.2138,75.8648,0,0,0,0,1,1,1,0,0,0,1,1,0,0,1,0,1,1,0,1,1,0,0
695,Rajasthan,Udaipur,313001,24.5854,73.7125,0,0,0,1,0,0,0,1,0,0,0,1,1,0,1,0,1,1,1,1,1,0,0
696,Rajasthan,Kota,324003,25.2138,75.8648,0,1,0,0,1,1,1,0,1,1,0,1,0,0,0,1,1,1,0,0,0,1,1
697,Rajasthan,Jaipur,302003,26.9124,75.7873,1,1,0,1,0,0,0,0,0,1,1,1,1,1,1,1,0,0,0,1,1,1,1
698,Rajasthan,Jodhpur,342003,26.2389,73.0243,0,1,1,1,1,1,1,1,1,0,1,1,0,1,0,0,0,0,1,0,1,1,0
699,Rajasthan,Jodhpur,342002,26.2389,73.0243,0,1,1,1,1,1,1,1,0,1,0,0,1,0,1,1,0,1,0,1,1,0,1
700,Rajasthan,Jodhpur,342003,26.2389,73.0243,0,0,1,1,1,0,0,1,1,0,1,1,1,0,0,0,0,0,0,1,1,0,0
701,Madhya Pradesh,Indore,452004,22.7196,75.8577,1,1,1,0,0,0,1,1,1,0,0,0,0,1,0,1,0,1,1,0,1,0,1
702,Madhya Pradesh,Jabalpur,482001,23.1815,79.9864,0,1,0,0,1,0,0,0,1,0,0,1,1,1,1,0,0,0,0,1,0,0,0
703,Madhya Pradesh,Gwalior,474003,26.2183,78.1828,1,1,0,0,0,1,0,1,1,0,0,1,0,0,0,1,1,1,0,0,0,0,1
704,Madhya Pradesh,Ujjain,456001,23.1793,75.7849,0,0,1,0,0,0,0,1,1,1,0,0,1,1,1,1,1,0,1,1,0,0,0
705,Madhya Pradesh,Jabalpur,482005,23.1815,79.9864,1,1,0,0,1,1,0,0,1,0,0,1,0,1,0,0,0,1,1,0,0,0,0
706,Madhya Pradesh,Jabalpur,482005,23.1815,79.9864,0,1,1,1,1,1,0,0,0,0,0,0,1,0,1,1,0,1,0,0,1,1,1
707,Madhya Pradesh,Ujjain,456002,23.1793,75.7849,0,1,0,1,0,1,0,1,0,1,1,1,0,1,1,0,0,0,0,0,1,0,1
708,Madhya Pradesh,Bhopal,462005,23.2599,77.4126,1,1,1,0,1,0,0,1,1,0,1,0,1,1,1,1,1,0,1,1,0,1,0
709,Madhya Pradesh,Bhopal,462003,23.2599,77.4126,1,0,0,0,0,0,0,0,1,0,1,1,1,1,1,0,0,1,0,0,1,1,1
710,Madhya Pradesh,Bhopal,462002,23.2599,77.4126,1,1,1,1,0,0,1,0,1,0,0,0,1,0,1,0,0,1,0,1,0,0,1
711,Madhya Pradesh,Bhopal,462004,23.2599,77.4126,0,1,1,0,1,0,0,1,1,0,1,0,1,0,1,0,1,1,0,1,1,0,0
712,Madhya Pradesh,Indore,452005,22.7196,75.8577,1,1,0,1,1,0,1,0,1,1,0,0,0,0,1,1,1,1,0,1,1,1,1
713,Madhya Pradesh,Gwalior,474001,26.2183,78.1828,1,1,0,1,0,0,1,0,1,1,0,1,0,1,1,0,0,0,1,1,0,0,1
714,Madhya Pradesh,Indore,452005,22.7196,75.8577,1,0,1,1,1,1,0,1,0,1,1,1,0,0,0,0,1,1,1,0,0,1,1
715,Madhya Pradesh,Gwalior,474004,26.2183,78.1828,0,0,1,0,0,1,1,0,1,0,0,0,1,1,0,0,1,1,0,0,0,1,1
716,Madhya Pradesh,Gwalior,474002,26.2183,78.1828,1,1,1,0,1,0,1,0,1,1,0,1,0,0,1,1,1,0,0,0,1,1,1
717,Madhya Pradesh,Bhopal,462003,23.2599,77.4126,1,1,0,1,0,0,0,0,1,1,0,0,0,1,0,1,0,0,1,0,0,1,1
718,Madhya Pradesh,Indore,452001,22.7196,75.8577,0,0,0,1,1,1,0,1,0,1,0,0,1,0,1,1,0,0,0,0,1,1,0
719,Madhya Pradesh,Bhopal,462002,23.2599,77.4126,0,1,1,1,0,0,1,1,0,1,0,0,1,1,1,1,1,1,0,1,0,1,0
720,Madhya Pradesh,Jabalpur,482002,23.1815,79.9864,1,1,1,0,1,1,1,0,1,0,0,0,1,1,0,0,0,0,0,0,1,0,1
721,Madhya Pradesh,Indore,452004,22.7196,75.8577,0,1,1,1,1,1,0,1,1,0,0,0,1,1,0,0,0,1,1,1,0,1,0
722,Madhya Pradesh,Jabalpur,482004,23.1815,79.9864,0,0,0,1,0,1,1,1,0,0,1,1,0,1,0,0,0,0,0,1,1,1,0
723,Madhya Pradesh,Bhopal,462005,23.2599,77.4126,0,1,1,0,1,0,0,1,1,1,0,1,0,1,0,1,1,1,0,0,0,0,1
724,Madhya Pradesh,Gwalior,474002,26.2183,78.1828,0,0,1,0,1,0,1,1,0,1,0,0,0,1,1,1,1,0,0,0,0,1,1
725,Madhya Pradesh,Jabalpur,482002,23.1815,79.9864,1,1,1,1,1,1,0,0,0,0,0,1,1,0,1,1,0,0,1,0,0,1,0
726,Madhya Pradesh,Gwalior,474001,26.2183,78.1828,1,1,1,1,0,0,1,1,1,0,0,0,1,1,1,0,0,0,1,0,1,1,0
727,Madhya Pradesh,Gwalior,474003,26.2183,78.1828,1,1,1,0,1,0,0,1,1,0,1,0,0,1,0,1,0,0,1,0,1,0,1
728,Madhya Pradesh,Indore,452001,22.7196,75.8577,0,0,1,1,1,1,1,0,0,0,0,1,1,1,0,0,1,1,0,0,1,0,1
729,Madhya Pradesh,Jabalpur,482003,23.1815,79.9864,0,0,1,1,1,1,1,1,0,0,1,1,1,0,0,1,1,0,1,0,1,0,1
730,Madhya Pradesh,Ujjain,456005,23.1793,75.7849,0,1,0,0,1,0,0,1,1,1,1,1,0,1,1,1,1,1,0,0,1,1,0
731,Madhya Pradesh,Bhopal,462004,23.2599,77.4126,1,1,1,1,1,0,0,0,1,1,0,1,1,1,0,1,1,0,0,0,0,0,0
732,Madhya Pradesh,Ujjain,456001,23.1793,75.7849,0,1,1,1,0,1,0,0,1,0,1,1,0,0,1,1,0,0,1,1,1,1,1
733,Madhya Pradesh,Jabalpur,482004,23.1815,79.9864,1,1,1,0,1,1,0,1,1,0,1,0,0,1,1,1,0,0,0,0,0,1,0
734,Madhya Pradesh,Ujjain,456005,23.1793,75.7849,1,0,1,1,1,0,0,1,1,1,1,0,0,0,0,0,1,0,1,1,0,1,0
735,Madhya Pradesh,Bhopal,462004,23.2599,77.4126,1,0,1,1,1,0,1,1,0,1,1,0,0,0,1,0,1,1,1,0,0,0,1
736,Madhya Pradesh,Jabalpur,482001,23.1815,79.9864,1,1,0,1,0,1,1,0,0,1,0,1,1,1,0,0,1,1,1,1,1,0,0
737,Madhya Pradesh,Ujjain,456003,23.1793,75.7849,0,1,1,1,1,0,1,1,0,1,1,1,1,1,0,1,1,1,1,0,0,1,0
738,Madhya Pradesh,Gwalior,474005,26.2183,78.1828,0,0,1,0,1,0,0,0,1,0,0,0,0,1,0,1,1,1,1,0,1,0,0
739,Madhya Pradesh,Jabalpur,482001,23.1815,79.9864,0,1,0,1,1,1,1,1,1,0,0,0,0,1,1,1,0,0,1,1,1,1,1
740,Madhya Pradesh,Gwalior,474004,26.2183,78.1828,1,1,1,1,0,0,1,0,0,1,0,1,1,0,1,0,0,0,0,1,0,1,0
741,Madhya Pradesh,Gwalior,474002,26.2183,78.1828,0,0,0,1,1,1,1,0,0,1,1,0,1,1,1,1,1,1,0,0,1,1,0
742,Madhya Pradesh,Indore,452003,22.7196,75.8577,0,0,1,1,1,0,0,0,1,0,1,0,0,1,0,0,0,1,0,0,0,0,0
743,Madhya Pradesh,Gwalior,474003,26.2183,78.1828,1,0,1,0,1,1,0,0,1,0,1,0,1,1,1,1,0,1,0,1,1,1,1
744,Madhya Pradesh,Gwalior,474002,26.2183,78.1828,1,1,0,0,1,1,1,1,0,0,1,0,1,0,1,1,1,0,0,0,0,0,1
745,Madhya Pradesh,Jabalpur,482002,23.1815,79.9864,0,0,1,1,0,1,0,1,1,1,1,0,0,0,1,0,0,0,0,1,1,1,0
746,Madhya Pradesh,Ujjain,456004,23.1793,75.7849,0,0,0,0,1,0,1,0,1,0,1,0,0,1,1,1,0,1,1,1,0,1,1
747,Madhya Pradesh,Ujjain,456005,23.1793,75.7849,0,1,0,1,0,0,0,0,0,1,1,0,0,1,1,0,0,0,1,0,0,0,0
748,Madhya Pradesh,Jabalpur,482004,23.1815,79.9864,0,0,0,1,0,1,0,0,0,1,1,0,0,1,1,0,0,0,0,1,1,1,0
749,Madhya Pradesh,Ujjain,456001,23.1793,75.7849,1,1,0,0,1,0,0,0,0,0,1,0,0,1,0,1,0,1,0,1,1,0,1
750,Madhya Pradesh,Indore,452003,22.7196,75.8577,1,0,1,0,0,0,0,0,0,1,0,0,0,1,0,1,1,0,0,0,1,0,0
751,Madhya Pradesh,Gwalior,474005,26.2183,78.1828,0,1,0,0,0,0,0,1,0,1,0,0,1,1,0,1,1,0,0,0,0,0,1
752,Madhya Pradesh,Jabalpur,482004,23.1815,79.9864,1,0,1,1,0,0,1,0,1,0,0,1,0,0,1,1,0,1,1,0,0,1,0
753,Madhya Pradesh,Indore,452004,22.7196,75.8577,0,1,1,0,0,0,1,0,0,1,0,1,0,1,1,1,1,1,0,1,0,1,0
754,Madhya Pradesh,Jabalpur,482002,23.1815,79.9864,0,1,0,0,1,1,0,1,1,0,1,1,1,1,0,0,0,0,0,0,0,1,0
755,Madhya Pradesh,Gwalior,474005,26.2183,78.1828,0,1,1,0,0,0,0,0,0,0,0,1,0,1,0,1,0,1,1,0,0,1,0
756,Madhya Pradesh,Gwalior,474003,26.2183,78.1828,1,0,1,0,0,1,0,1,1,0,1,1,0,1,1,0,0,0,1,1,1,1,0
757,Madhya Pradesh,Indore,452004,22.7196,75.8577,1,0,0,0,1,0,1,1,0,1,1,1,0,1,1,0,1,1,1,1,0,0,0
758,Madhya Pradesh,Indore,452001,22.7196,75.8577,1,0,1,0,0,0,0,1,1,0,0,1,0,1,1,0,0,0,0,0,1,1,1
759,Madhya Pradesh,Jabalpur,482001,23.1815,79.9864,1,0,1,1,0,0,1,1,1,0,0,1,1,1,1,0,1,0,0,1,0,1,1
760,Madhya Pradesh,Gwalior,474004,26.2183,78.1828,1,1,1,0,1,0,1,0,0,0,1,1,0,1,1,1,0,1,0,1,1,1,1
761,Madhya Pradesh,Jabalpur,482001,23.1815,79.9864,0,0,1,1,1,1,1,1,0,1,0,0,0,1,1,1,0,0,0,0,1,0,0
762,Madhya Pradesh,Indore,452001,22.7196,75.8577,0,1,0,1,0,1,0,1,0,1,0,0,0,1,0,0,0,1,1,1,1,1,1
763,Madhya Pradesh,Gwalior,474002,26.2183,78.1828,0,1,1,1,1,1,1,0,1,0,0,0,0,1,0,0,0,0,0,1,1,0,1
764,Madhya Pradesh,Indore,452001,22.7196,75.8577,1,0,1,1,1,1,0,0,1,1,1,0,1,0,1,1,0,0,1,0,1,0,0
765,Madhya Pradesh,Jabalpur,482004,23.1815,79.9864,0,0,1,0,0,0,0,0,1,1,0,0,0,1,1,1,1,1,0,0,1,0,1
766,Madhya Pradesh,Gwalior,474003,26.2183,78.1828,1,1,0,0,1,1,1,1,0,0,1,0,0,0,1,1,1,1,0,0,0,1,0
767,Madhya Pradesh,Bhopal,462003,23.2599,77.4126,0,0,0,1,1,0,0,1,0,1,1,0,0,1,0,1,1,1,1,1,0,1,1
768,Madhya Pradesh,Jabalpur,482001,23.1815,79.9864,0,1,1,1,1,0,1,0,1,0,1,1,0,1,0,0,0,1,1,1,1,1,1
769,Madhya Pradesh,Jabalpur,482004,23.1815,79.9864,1,1,1,0,0,1,0,1,0,1,0,0,0,0,0,1,0,1,1,1,1,0,1
770,Madhya Pradesh,Indore,452001,22.7196,75.8577,1,0,0,1,0,1,0,0,1,0,1,0,0,0,1,1,0,1,1,1,1,1,1
771,Madhya Pradesh,Jabalpur,482003,23.1815,79.9864,0,1,1,0,1,1,0,1,1,0,1,1,0,1,0,1,0,0,0,0,1,1,0
772,Madhya Pradesh,Gwalior,474004,26.2183,78.1828,0,1,1,1,1,1,1,0,0,0,1,1,1,0,0,1,0,0,1,1,0,0,1
773,Madhya Pradesh,Ujjain,456004,23.1793,75.7849,1,1,1,1,1,1,1,1,1,0,1,0,1,1,1,0,1,1,1,0,1,1,0
774,Madhya Pradesh,Bhopal,462003,23.2599,77.4126,1,1,1,0,1,1,1,1,0,0,1,1,0,0,1,1,1,1,0,1,0,1,1
775,Madhya Pradesh,Gwalior,474003,26.2183,78.1828,0,0,0,0,0,1,0,1,0,1,0,0,0,1,0,0,1,0,1,1,1,1,0
776,Madhya Pradesh,Ujjain,456002,23.1793,75.7849,1,1,0,0,1,1,1,1,0,1,1,0,1,0,1,0,1,0,1,0,1,0,1
777,Madhya Pradesh,Ujjain,456002,23.1793,75.7849,0,0,1,1,1,0,0,0,0,1,1,0,0,1,1,0,1,0,0,1,0,0,1
778,Madhya Pradesh,Ujjain,456003,23.1793,75.7849,0,1,1,1,0,0,1,0,0,1,0,1,1,0,0,1,0,1,1,1,1,1,1
779,Madhya Pradesh,Jabalpur,482004,23.1815,79.9864,1,0,0,0,1,1,1,0,1,0,1,0,0,0,1,0,0,1,1,0,0,0,0
780,Madhya Pradesh,Gwalior,474004,26.2183,78.1828,0,1,1,1,1,1,1,0,1,0,0,0,1,1,1,0,0,0,1,0,1,1,1
781,Madhya Pradesh,Ujjain,456001,23.1793,75.7849,0,1,0,0,1,1,1,1,1,1,1,0,1,1,0,0,1,1,0,1,0,1,0
782,Madhya Pradesh,Bhopal,462001,23.2599,77.4126,0,1,0,0,0,1,0,1,0,1,1,1,0,0,1,1,1,0,1,0,0,0,0
783,Madhya Pradesh,Ujjain,456001,23.1793,75.7849,0,1,0,1,1,0,0,0,0,1,1,0,1,0,1,0,1,1,0,1,1,0,1
784,Madhya Pradesh,Ujjain,456001,23.1793,75.7849,1,1,1,1,1,0,1,0,1,0,0,0,0,1,1,0,0,0,1,1,0,1,1
785,Madhya Pradesh,Indore,452003,22.7196,75.8577,1,0,1,0,1,0,0,1,1,0,0,0,1,1,0,0,1,1,0,0,1,0,1
786,Madhya Pradesh,Jabalpur,482003,23.1815,79.9864,1,0,0,1,1,1,0,0,1,1,0,1,0,1,1,1,0,0,1,0,1,0,0
787,Madhya Pradesh,Jabalpur,482004,23.1815,79.9864,1,1,1,0,0,0,1,1,1,1,0,1,1,0,0,1,1,1,0,1,1,1,0
788,Madhya Pradesh,Indore,452002,22.7196,75.8577,0,0,0,1,0,0,0,0,1,0,0,1,1,0,0,0,0,0,1,1,1,0,1
789,Madhya Pradesh,Indore,452005,22.7196,75.8577,0,0,0,0,0,1,0,0,1,0,1,0,0,1,0,1,0,1,0,1,0,0,1
790,Madhya Pradesh,Bhopal,462005,23.2599,77.4126,0,0,0,1,1,0,0,0,0,0,0,1,0,1,0,0,0,1,1,1,0,1,1
791,Madhya Pradesh,Bhopal,462001,23.2599,77.4126,0,1,1,1,1,0,0,0,1,1,1,1,0,0,1,1,1,0,1,1,1,1,1
792,Madhya Pradesh,Bhopal,462003,23.2599,77.4126,0,0,0,0,0,1,0,0,0,1,0,0,1,0,1,0,1,1,1,0,0,1,0
793,Madhya Pradesh,Bhopal,462005,23.2599,77.4126,0,0,0,0,1,1,0,1,0,0,0,0,1,1,0,0,0,1,0,0,1,1,1
794,Madhya Pradesh,Gwalior,474002,26.2183,78.1828,0,1,0,1,1,0,0,1,0,0,0,1,1,0,1,1,0,0,0,1,1,1,0
795,Madhya Pradesh,Indore,452004,22.7196,75.8577,0,1,0,0,1,0,1,0,1,0,0,0,1,1,0,0,0,0,0,1,0,0,1
796,Madhya Pradesh,Bhopal,462003,23.2599,77.4126,1,1,0,1,0,1,1,0,0,1,1,1,1,1,0,0,1,1,1,0,1,1,0
797,Madhya Pradesh,Bhopal,462003,23.2599,77.4126,1,1,0,1,0,1,1,0,1,0,1,0,0,0,0,0,1,1,1,1,1,1,1
798,Madhya Pradesh,Ujjain,456005,23.1793,75.7849,1,1,1,0,0,0,0,1,0,0,0,0,1,1,0,1,0,0,1,1,0,1,1
799,Madhya Pradesh,Bhopal,462002,23.2599,77.4126,0,1,1,0,1,0,0,1,1,1,0,1,1,0,0,1,0,0,1,1,1,1,0
800,Madhya Pradesh,Gwalior,474003,26.2183,78.1828,0,0,1,1,0,1,1,1,1,1,0,1,0,1,0,0,0,0,0,1,0,0,1
801,Punjab,Jalandhar,144001,31.326,75.5762,0,1,0,1,0,0,0,0,1,1,0,0,1,1,0,0,0,1,0,1,1,0,1
802,Punjab,Amritsar,143005,31.634,74.8723,0,0,1,1,1,0,0,0,1,0,0,0,1,1,0,1,1,1,1,1,0,0,0
803,Punjab,Ludhiana,141002,30.9009,75.8573,1,0,1,0,0,0,0,1,0,0,1,1,1,1,1,1,1,1,1,0,1,1,0
804,Punjab,Jalandhar,144004,31.326,75.5762,0,1,1,1,1,1,1,1,1,1,0,1,1,0,0,0,0,0,1,0,0,0,0
805,Punjab,Ludhiana,141002,30.9009,75.8573,0,1,0,1,1,0,1,1,1,1,0,0,1,1,0,1,1,0,0,1,0,1,1
806,Punjab,Amritsar,143005,31.634,74.8723,0,1,0,0,0,1,0,0,0,0,1,0,0,1,1,1,1,0,0,0,1,0,1
807,Punjab,Amritsar,143003,31.634,74.8723,0,0,0,1,1,0,1,0,0,0,1,1,1,0,0,1,1,1,0,1,0,0,0
808,Punjab,Jalandhar,144004,31.326,75.5762,1,1,1,0,1,0,0,1,0,1,1,1,0,1,0,0,0,0,0,0,1,1,1
809,Punjab,Bathinda,151005,30.211,74.9455,0,0,0,0,1,0,1,0,0,0,0,1,0,0,0,1,1,1,1,1,1,0,1
810,Punjab,Amritsar,143003,31.634,74.8723,1,1,0,1,0,0,1,0,1,0,1,1,0,1,0,1,1,0,1,0,1,0,1
811,Punjab,Jalandhar,144002,31.326,75.5762,1,1,1,1,1,1,1,0,0,1,1,1,0,1,0,0,0,1,0,0,1,1,0
812,Punjab,Amritsar,143001,31.634,74.8723,0,0,1,1,0,0,1,0,0,1,0,0,0,0,0,1,0,0,1,0,1,0,1
813,Punjab,Ludhiana,141004,30.9009,75.8573,1,0,0,0,1,1,1,1,0,0,1,1,0,0,1,1,0,0,0,1,1,1,1
814,Punjab,Patiala,147002,30.3398,76.3869,0,1,1,0,1,1,0,0,1,0,0,1,0,1,1,0,1,0,1,0,1,1,0
815,Punjab,Patiala,147001,30.3398,76.3869,0,0,1,0,0,1,1,1,0,0,1,1,0,0,0,1,0,1,0,0,0,1,0
816,Punjab,Amritsar,143003,31.634,74.8723,0,1,0,0,0,1,0,0,1,1,1,0,0,1,0,0,0,1,0,1,0,0,1
817,Punjab,Amritsar,143002,31.634,74.8723,0,1,1,0,1,1,0,1,0,1,1,0,1,1,1,0,1,1,0,0,0,1,0
818,Punjab,Amritsar,143001,31.634,74.8723,0,0,1,0,1,1,1,1,0,0,0,1,0,0,1,1,1,0,1,1,0,0,0
819,Punjab,Ludhiana,141004,30.9009,75.8573,0,0,0,1,1,0,0,0,0,0,1,1,1,0,1,0,1,0,1,0,1,1,0
820,Punjab,Patiala,147002,30.3398,76.3869,1,1,0,0,0,1,1,1,0,1,1,0,0,0,0,1,0,0,1,1,0,1,0
821,Punjab,Amritsar,143001,31.634,74.8723,1,0,0,0,1,1,0,1,0,1,0,1,1,0,0,1,1,0,0,1,0,1,1
822,Punjab,Bathinda,151005,30.211,74.9455,0,0,1,0,1,0,0,1,1,1,0,0,1,0,0,0,1,1,1,1,0,1,1
823,Punjab,Bathinda,151002,30.211,74.9455,1,1,0,1,1,1,1,1,1,0,0,1,1,1,1,1,1,0,1,0,0,1,1
824,Punjab,Bathinda,151005,30.211,74.9455,1,1,1,0,0,0,1,1,1,0,1,1,0,1,0,0,1,0,1,1,0,1,1
825,Punjab,Jalandhar,144005,31.326,75.5762,0,0,0,0,0,0,1,0,0,1,1,1,1,1,0,1,0,0,0,1,0,0,0
826,Punjab,Ludhiana,141002,30.9009,75.8573,0,0,0,0,1,0,1,1,1,1,0,0,0,0,0,0,0,0,1,1,0,1,1
827,Punjab,Bathinda,151005,30.211,74.9455,1,0,0,1,0,1,1,0,0,0,0,1,1,1,0,1,0,0,0,0,1,1,1
828,Punjab,Ludhiana,141003,30.9009,75.8573,1,0,0,1,0,1,0,1,1,1,0,0,0,0,1,1,1,0,0,0,0,1,1
829,Punjab,Jalandhar,144004,31.326,75.5762,1,1,1,1,0,0,1,1,0,1,1,0,1,1,0,1,1,0,0,0,0,1,0
830,Punjab,Patiala,147004,30.3398,76.3869,0,1,1,0,1,1,0,0,1,0,1,0,1,1,1,0,0,0,0,1,1,0,0
831,Punjab,Patiala,147001,30.3398,76.3869,0,0,0,1,1,1,0,0,1,1,1,1,0,0,1,0,0,1,0,0,0,1,0
832,Punjab,Amritsar,143005,31.634,74.8723,0,0,1,0,1,1,0,1,1,1,0,0,1,0,1,1,0,1,0,0,0,1,1
833,Punjab,Bathinda,151002,30.211,74.9455,1,0,0,0,1,1,0,1,1,1,1,0,1,1,0,1,1,1,1,0,1,0,1
834,Punjab,Ludhiana,141001,30.9009,75.8573,0,1,0,0,1,1,1,1,1,0,1,1,1,0,0,1,1,0,0,1,0,1,0
835,Punjab,Amritsar,143002,31.634,74.8723,1,1,0,1,0,0,0,0,0,0,1,0,0,1,0,0,1,1,1,1,1,1,0
836,Punjab,Amritsar,143004,31.634,74.8723,0,1,0,1,0,1,1,1,0,0,1,1,0,0,0,0,1,1,0,1,0,0,1
837,Punjab,Jalandhar,144004,31.326,75.5762,1,0,1,1,0,0,1,1,1,0,1,0,1,1,1,0,0,1,1,0,0,1,0
838,Punjab,Patiala,147003,30.3398,76.3869,1,0,1,0,1,0,1,1,1,0,0,1,0,0,1,1,0,0,0,1,0,1,0
839,Punjab,Patiala,147005,30.3398,76.3869,0,1,1,0,0,0,0,0,0,1,0,0,0,1,1,1,1,0,0,1,1,1,1
840,Punjab,Bathinda,151005,30.211,74.9455,1,1,1,1,1,1,0,1,1,0,0,1,0,0,1,0,1,0,1,0,1,0,0
841,Punjab,Bathinda,151005,30.211,74.9455,0,1,1,0,0,1,0,1,0,0,0,1,0,0,1,0,1,1,0,0,1,1,0
842,Punjab,Patiala,147001,30.3398,76.3869,0,0,1,0,0,0,0,0,0,1,1,1,1,1,0,0,1,0,0,1,0,0,1
843,Punjab,Bathinda,151003,30.211,74.9455,0,1,1,1,1,1,1,0,1,0,1,0,1,0,1,1,1,0,1,0,0,1,0
844,Punjab,Patiala,147003,30.3398,76.3869,0,1,0,1,0,1,0,0,1,1,0,1,0,1,0,0,1,1,1,1,1,0,1
845,Punjab,Patiala,147003,30.3398,76.3869,1,0,1,0,0,1,1,1,1,1,0,1,1,1,1,1,1,0,0,0,0,0,1
846,Punjab,Ludhiana,141003,30.9009,75.8573,1,0,1,0,1,0,1,1,0,0,0,0,1,1,1,0,1,1,1,1,1,0,0
847,Punjab,Patiala,147005,30.3398,76.3869,0,0,0,0,0,1,0,1,1,0,1,0,0,1,1,1,0,0,1,1,0,0,1
848,Punjab,Bathinda,151003,30.211,74.9455,1,1,0,0,0,0,1,0,1,1,1,1,1,1,0,1,1,1,1,1,1,1,1
849,Punjab,Ludhiana,141004,30.9009,75.8573,1,0,0,1,1,0,0,0,0,1,0,0,0,1,1,0,0,0,1,1,1,1,1
850,Punjab,Ludhiana,141004,30.9009,75.8573,0,1,0,1,0,1,0,1,0,1,0,1,1,0,0,0,1,1,0,1,0,0,1
851,Punjab,Patiala,147004,30.3398,76.3869,0,1,0,0,1,0,0,0,1,1,1,1,1,0,0,0,1,1,0,1,0,1,0
852,Punjab,Ludhiana,141002,30.9009,75.8573,1,1,0,1,0,1,1,1,0,0,0,0,0,1,0,1,1,1,0,1,0,1,0
853,Punjab,Amritsar,143004,31.634,74.8723,0,0,0,1,1,1,0,0,1,1,1,0,1,1,1,0,1,1,0,1,0,1,0
854,Punjab,Ludhiana,141001,30.9009,75.8573,1,0,0,0,0,0,0,1,0,0,0,0,0,1,1,0,1,0,1,0,0,1,0
855,Punjab,Bathinda,151002,30.211,74.9455,0,0,0,1,1,1,0,0,1,1,1,1,1,1,0,1,0,0,0,1,1,1,0
856,Punjab,Bathinda,151005,30.211,74.9455,0,1,0,1,0,0,1,0,1,0,1,0,1,1,1,0,0,0,0,1,1,0,1
857,Punjab,Jalandhar,144005,31.326,75.5762,0,1,0,1,1,0,0,0,1,0,0,1,1,0,0,1,1,1,0,0,0,0,1
858,Punjab,Patiala,147005,30.3398,76.3869,1,1,1,0,0,1,0,1,0,1,1,0,1,0,1,1,0,1,1,1,1,0,0
859,Punjab,Ludhiana,141002,30.9009,75.8573,0,1,0,1,1,1,1,1,0,0,1,1,0,1,0,0,0,0,0,0,0,0,1
860,Punjab,Amritsar,143005,31.634,74.8723,1,1,1,1,0,1,0,1,1,0,0,1,0,0,1,1,1,0,1,0,0,0,0
861,Punjab,Jalandhar,144003,31.326,75.5762,0,0,1,1,0,1,0,1,1,0,1,1,1,0,1,0,1,1,0,1,0,0,1
862,Punjab,Ludhiana,141005,30.9009,75.8573,0,0,0,1,0,0,0,0,0,1,1,0,0,0,0,0,0,1,1,0,0,1,0
863,Punjab,Amritsar,143002,31.634,74.8723,0,1,1,0,0,0,1,0,0,1,1,0,0,1,1,1,0,0,0,0,1,0,0
864,Punjab,Amritsar,143002,31.634,74.8723,1,1,0,1,1,0,0,0,0,0,0,1,1,1,1,0,1,0,0,1,1,1,0
865,Punjab,Jalandhar,144003,31.326,75.5762,1,1,1,0,0,1,1,1,1,0,0,1,0,0,1,1,0,0,1,1,1,1,0
866,Punjab,Bathinda,151003,30.211,74.9455,1,1,0,1,0,1,0,1,1,0,1,0,0,0,0,1,1,1,0,0,1,1,0
867,Punjab,Amritsar,143002,31.634,74.8723,0,0,0,0,0,0,0,0,1,1,0,0,0,1,1,0,0,1,0,0,0,1,0
868,Punjab,Patiala,147005,30.3398,76.3869,0,0,0,0,0,1,1,0,0,1,0,0,0,1,0,1,1,0,0,1,0,0,1
869,Punjab,Patiala,147003,30.3398,76.3869,0,1,0,1,1,0,0,1,0,0,1,1,1,1,1,0,0,0,0,1,0,1,1
870,Punjab,Bathinda,151005,30.211,74.9455,1,0,1,0,1,1,0,0,0,1,1,1,1,1,1,1,1,0,1,0,1,0,0
871,Punjab,Bathinda,151003,30.211,74.9455,0,0,0,0,1,1,1,0,1,0,1,1,1,1,1,0,1,0,1,0,1,0,0
872,Punjab,Ludhiana,141005,30.9009,75.8573,0,0,1,1,1,0,1,1,1,1,1,0,0,1,1,1,1,0,0,0,1,1,0
873,Punjab,Patiala,147001,30.3398,76.3869,0,0,1,0,0,1,1,1,1,1,0,0,0,0,1,1,1,0,0,1,0,1,0
874,Punjab,Amritsar,143005,31.634,74.8723,0,1,0,0,0,1,1,0,0,0,0,1,1,0,0,0,0,0,1,0,1,0,1
875,Punjab,Jalandhar,144004,31.326,75.5762,1,0,0,1,0,1,1,1,1,1,1,0,1,0,1,0,1,0,0,0,1,0,0
876,Punjab,Bathinda,151003,30.211,74.9455,0,0,0,0,1,0,1,1,1,0,0,1,0,0,0,1,0,1,1,1,0,1,1
877,Punjab,Ludhiana,141004,30.9009,75.8573,0,1,0,0,0,1,1,0,0,0,1,0,1,0,0,0,0,1,0,0,0,1,0
878,Punjab,Ludhiana,141004,30.9009,75.8573,0,1,0,0,0,1,0,1,1,1,1,0,0,0,0,1,0,1,1,1,1,1,1
879,Punjab,Patiala,147005,30.3398,76.3869,0,1,1,0,0,1,0,0,0,0,0,1,0,1,1,0,0,0,1,0,1,1,0
880,Punjab,Ludhiana,141001,30.9009,75.8573,0,0,1,1,1,1,0,1,0,1,1,1,1,0,1,1,1,0,0,0,1,1,1
881,Punjab,Amritsar,143005,31.634,74.8723,1,1,1,0,1,1,0,0,1,1,1,0,1,1,0,1,0,0,1,1,0,0,1
882,Punjab,Bathinda,151005,30.211,74.9455,0,1,0,1,0,1,0,0,0,1,1,1,0,0,0,1,0,1,1,0,1,1,1
883,Punjab,Jalandhar,144003,31.326,75.5762,0,0,1,1,0,0,0,1,0,1,0,1,1,0,1,0,0,1,1,1,1,0,1
884,Punjab,Amritsar,143005,31.634,74.8723,1,1,0,0,0,1,1,1,0,1,0,1,1,0,1,1,0,1,0,1,0,0,0
885,Punjab,Patiala,147001,30.3398,76.3869,1,0,1,1,0,0,1,1,1,0,0,0,0,1,0,1,1,1,1,1,0,0,1
886,Punjab,Amritsar,143005,31.634,74.8723,1,0,0,1,1,0,0,1,0,0,0,1,1,0,0,1,1,0,1,1,1,0,1
887,Punjab,Ludhiana,141002,30.9009,75.8573,0,0,0,1,0,0,0,0,1,0,0,0,1,0,1,1,1,1,1,0,0,1,1
888,Punjab,Amritsar,143001,31.634,74.8723,1,0,0,0,1,0,1,0,0,1,0,1,1,0,1,0,1,1,0,1,0,1,1
889,Punjab,Patiala,147004,30.3398,76.3869,1,1,1,1,1,0,1,1,0,1,0,1,1,1,1,1,1,0,1,1,1,1,1
890,Punjab,Amritsar,143004,31.634,74.8723,0,0,0,0,0,0,0,0,1,1,1,0,1,1,0,0,1,0,1,0,0,0,0
891,Punjab,Patiala,147005,30.3398,76.3869,1,1,0,1,1,1,0,1,1,0,0,0,1,1,0,1,1,1,1,0,0,1,1
892,Punjab,Ludhiana,141002,30.9009,75.8573,0,1,0,0,1,0,1,0,0,1,0,0,1,1,1,0,1,1,0,1,0,1,0
893,Punjab,Bathinda,151003,30.211,74.9455,0,1,1,1,1,1,0,1,0,0,0,0,0,1,0,1,1,0,1,1,0,1,1
894,Punjab,Jalandhar,144004,31.326,75.5762,0,1,0,0,1,0,1,1,1,1,0,0,0,1,1,1,0,0,1,1,0,1,0
895,Punjab,Ludhiana,141005,30.9009,75.8573,0,1,0,0,1,1,1,1,0,1,1,0,0,0,1,1,1,1,1,1,0,1,1
896,Punjab,Patiala,147001,30.3398,76.3869,1,1,1,1,0,1,1,0,0,0,1,1,0,0,1,0,0,1,0,1,1,0,0
897,Punjab,Amritsar,143002,31.634,74.8723,1,0,0,1,1,1,0,0,0,1,1,0,1,1,0,1,1,1,0,0,1,1,1
898,Punjab,Jalandhar,144005,31.326,75.5762,1,1,0,0,1,0,1,1,0,1,1,0,1,1,0,0,1,0,1,1,1,0,0
899,Punjab,Ludhiana,141002,30.9009,75.8573,0,0,0,1,0,0,1,1,0,0,0,0,1,0,1,1,1,1,1,0,1,1,1
900,Punjab,Jalandhar,144003,31.326,75.5762,0,1,0,0,1,1,1,0,0,0,1,1,1,0,1,1,1,0,0,1,0,1,0
901,Haryana,Ambala,134006,30.3782,76.7767,1,1,0,0,1,0,0,0,0,1,0,1,0,0,1,0,1,1,0,1,0,1,1
902,Haryana,Gurugram,122001,28.4595,77.0266,0,0,0,1,0,0,1,0,1,0,0,1,1,1,0,1,0,1,1,0,1,1,0
903,Haryana,Ambala,134003,30.3782,76.7767,1,0,1,0,1,0,1,1,0,0,0,1,1,0,1,1,0,1,1,0,1,0,0
904,Haryana,Ambala,134006,30.3782,76.7767,1,1,0,0,0,1,0,0,0,1,0,0,1,1,1,1,1,0,1,0,0,1,0
905,Haryana,Faridabad,121002,28.4089,77.3178,1,0,1,0,0,0,1,0,0,1,0,1,0,0,0,1,0,0,1,1,0,0,1
906,Haryana,Yamunanagar,135004,30.129,77.2674,1,0,0,0,0,0,0,1,0,1,1,0,0,0,1,0,1,1,0,0,1,1,1
907,Haryana,Ambala,134005,30.3782,76.7767,0,1,1,1,1,1,1,1,0,0,1,0,0,0,1,0,1,0,0,0,0,1,1
908,Haryana,Ambala,134006,30.3782,76.7767,1,0,1,1,1,0,0,1,0,0,0,1,0,0,1,1,0,1,1,1,0,0,1
909,Haryana,Panipat,132107,29.3909,76.9635,0,1,0,0,0,1,1,0,0,0,1,1,0,1,1,1,1,0,0,0,1,0,1
910,Haryana,Panipat,132107,29.3909,76.9635,0,0,1,1,1,0,0,1,0,0,1,1,0,0,1,0,0,0,1,1,0,0,1
911,Haryana,Panipat,132106,29.3909,76.9635,0,1,1,0,0,0,0,1,0,0,1,0,1,1,0,1,1,1,1,0,0,1,0
912,Haryana,Gurugram,122003,28.4595,77.0266,0,0,0,0,1,1,0,0,0,1,1,0,0,1,0,1,0,1,0,0,0,0,0
913,Haryana,Yamunanagar,135005,30.129,77.2674,0,0,1,1,0,1,1,1,1,0,0,1,0,0,1,1,0,0,0,0,0,0,0
914,Haryana,Ambala,134004,30.3782,76.7767,1,1,1,0,1,0,0,0,1,1,1,1,1,0,0,0,1,1,0,0,0,0,0
915,Haryana,Faridabad,121004,28.4089,77.3178,1,1,1,1,0,1,1,1,1,0,1,1,0,0,0,1,1,0,0,1,0,1,0
916,Haryana,Gurugram,122005,28.4595,77.0266,0,0,0,1,0,0,1,1,1,0,1,0,0,1,0,0,0,0,1,0,0,0,0
917,Haryana,Panipat,132106,29.3909,76.9635,1,0,1,1,0,1,1,1,1,0,1,1,0,0,0,1,1,1,0,0,0,0,1
918,Haryana,Faridabad,121001,28.4089,77.3178,0,0,0,0,0,1,0,0,1,1,0,1,1,1,0,0,0,1,0,0,0,0,1
919,Haryana,Gurugram,122004,28.4595,77.0266,1,0,1,1,0,1,1,1,1,1,1,0,1,0,0,1,0,1,1,1,0,1,0
920,Haryana,Ambala,134005,30.3782,76.7767,1,0,1,1,1,1,0,0,0,0,0,0,0,0,0,1,1,1,0,1,0,0,1
921,Haryana,Ambala,134004,30.3782,76.7767,0,0,1,1,1,1,0,0,1,1,1,0,0,0,1,0,0,0,0,0,0,1,1
922,Haryana,Gurugram,122002,28.4595,77.0266,0,0,0,0,1,1,0,1,0,0,1,1,0,0,0,0,0,1,1,0,1,1,0
923,Haryana,Faridabad,121004,28.4089,77.3178,1,0,0,1,1,1,0,0,1,0,1,0,1,0,1,0,1,1,1,0,0,0,1
924,Haryana,Ambala,134003,30.3782,76.7767,1,1,1,0,0,1,1,0,0,1,1,0,0,0,0,1,0,1,1,1,0,0,1
925,Haryana,Gurugram,122003,28.4595,77.0266,1,0,0,0,1,1,1,0,1,0,0,1,1,0,0,1,1,1,1,1,0,1,1
926,Haryana,Ambala,134004,30.3782,76.7767,0,0,1,0,1,1,0,0,1,1,1,1,0,1,1,1,1,0,0,1,1,0,0
927,Haryana,Ambala,134003,30.3782,76.7767,1,0,1,0,0,1,0,1,1,0,0,0,0,0,1,1,0,1,0,1,1,0,1
928,Haryana,Ambala,134003,30.3782,76.7767,0,1,1,1,0,1,1,0,0,1,0,1,1,0,1,0,0,0,0,1,1,1,1
929,Haryana,Panipat,132104,29.3909,76.9635,0,1,1,1,0,0,0,1,0,0,1,1,1,1,1,0,0,1,1,0,0,0,1
930,Haryana,Faridabad,121001,28.4089,77.3178,1,0,0,1,1,0,1,1,0,0,0,1,1,0,0,0,0,1,0,0,1,0,1
931,Haryana,Panipat,132103,29.3909,76.9635,1,0,1,0,0,0,0,1,0,0,1,1,0,1,1,0,1,0,0,0,1,0,1
932,Haryana,Faridabad,121004,28.4089,77.3178,0,0,0,1,1,1,0,0,1,0,1,1,1,0,1,1,0,0,0,1,1,1,1
933,Haryana,Panipat,132106,29.3909,76.9635,1,0,1,0,1,1,1,1,1,0,0,1,0,1,0,1,0,0,0,1,1,0,0
934,Haryana,Yamunanagar,135005,30.129,77.2674,0,0,0,0,0,1,1,0,0,1,0,1,0,0,1,1,0,0,0,1,0,0,0
935,Haryana,Ambala,134006,30.3782,76.7767,0,0,0,0,0,0,1,0,0,1,1,0,0,1,0,1,1,0,1,1,0,1,1
936,Haryana,Panipat,132107,29.3909,76.9635,1,1,0,1,0,1,1,1,0,0,1,0,1,0,0,1,0,0,1,0,0,0,1
937,Haryana,Yamunanagar,135005,30.129,77.2674,0,0,0,1,0,1,1,0,0,0,0,0,1,1,0,1,1,1,1,1,1,1,0
938,Haryana,Panipat,132104,29.3909,76.9635,1,1,0,1,1,0,0,0,0,0,0,1,1,1,0,0,1,1,0,0,0,1,1
939,Haryana,Yamunanagar,135003,30.129,77.2674,0,1,1,1,0,1,1,1,1,0,1,1,1,0,0,0,0,1,1,1,0,1,0
940,Haryana,Faridabad,121005,28.4089,77.3178,0,1,1,0,0,1,1,1,0,1,0,1,0,0,1,0,1,1,0,0,0,1,0
941,Haryana,Ambala,134007,30.3782,76.7767,1,1,1,0,0,0,1,1,1,1,1,1,1,1,0,0,0,0,1,0,1,1,1
942,Haryana,Ambala,134007,30.3782,76.7767,0,1,1,1,0,0,1,0,0,1,1,1,1,1,1,1,1,0,0,0,0,0,0
943,Haryana,Gurugram,122002,28.4595,77.0266,1,0,0,0,0,0,1,1,0,0,0,0,1,0,0,1,1,1,0,1,1,1,0
944,Haryana,Faridabad,121001,28.4089,77.3178,0,1,0,1,0,1,1,0,1,1,0,1,1,0,0,0,0,1,0,0,0,0,1
945,Haryana,Ambala,134005,30.3782,76.7767,1,1,1,0,1,1,0,1,0,0,1,1,1,0,1,1,0,0,1,1,0,0,0
946,Haryana,Panipat,132106,29.3909,76.9635,1,0,0,1,0,0,1,1,0,1,1,1,1,1,1,0,1,1,1,1,0,0,0
947,Haryana,Ambala,134007,30.3782,76.7767,0,0,0,0,0,1,1,0,1,1,1,1,1,0,1,1,0,0,1,0,1,1,0
948,Haryana,Panipat,132103,29.3909,76.9635,0,0,0,0,1,0,1,1,0,1,0,0,1,1,0,1,0,0,0,1,0,1,1
949,Haryana,Ambala,134003,30.3782,76.7767,1,1,0,0,0,1,1,1,1,1,0,0,1,0,1,1,0,0,0,0,1,0,1
950,Haryana,Yamunanagar,135004,30.129,77.2674,1,1,0,0,1,1,0,0,0,1,0,1,1,1,0,1,0,0,0,0,1,0,1
951,Haryana,Ambala,134007,30.3782,76.7767,1,1,0,1,1,1,1,1,1,0,0,1,0,1,1,0,0,0,1,0,0,0,1
952,Haryana,Faridabad,121005,28.4089,77.3178,1,0,1,0,0,1,0,1,1,1,1,0,1,1,0,0,0,1,1,1,1,1,1
953,Haryana,Panipat,132105,29.3909,76.9635,1,0,1,1,1,0,0,0,1,0,0,1,1,0,1,0,0,1,0,0,0,0,0
954,Haryana,Gurugram,122004,28.4595,77.0266,0,1,1,1,0,1,0,1,1,0,0,0,0,1,0,0,1,1,0,0,0,1,1
955,Haryana,Panipat,132107,29.3909,76.9635,1,0,0,0,0,0,1,0,0,1,1,0,0,1,1,1,1,0,0,0,1,1,1
956,Haryana,Gurugram,122004,28.4595,77.0266,1,1,0,0,0,1,0,1,0,0,0,0,0,0,0,0,1,1,1,1,0,0,1
957,Haryana,Yamunanagar,135003,30.129,77.2674,1,0,1,0,1,1,0,0,1,0,0,0,1,1,1,1,1,0,0,0,0,0,0
958,Haryana,Gurugram,122003,28.4595,77.0266,1,0,0,0,0,0,0,0,1,0,0,0,0,0,1,1,1,1,0,1,0,0,0
959,Haryana,Ambala,134003,30.3782,76.7767,1,0,1,0,1,1,1,0,0,0,1,0,0,0,1,0,0,1,0,1,0,1,0
960,Haryana,Panipat,132106,29.3909,76.9635,1,1,1,1,0,0,1,1,1,0,1,0,1,1,1,0,0,0,0,0,0,1,0
961,Haryana,Gurugram,122003,28.4595,77.0266,1,1,1,0,1,1,1,1,1,0,0,0,1,0,1,0,1,0,0,0,0,0,1
962,Haryana,Panipat,132107,29.3909,76.9635,0,1,0,1,0,1,1,0,0,1,1,0,0,0,1,0,0,1,1,1,0,0,0
963,Haryana,Faridabad,121002,28.4089,77.3178,1,0,0,0,1,1,1,0,1,0,0,1,1,1,1,1,1,1,1,1,1,1,0
964,Haryana,Yamunanagar,135005,30.129,77.2674,0,1,1,1,1,0,1,0,0,1,1,1,0,0,0,1,1,0,0,1,1,1,1
965,Haryana,Gurugram,122002,28.4595,77.0266,0,0,1,1,1,0,0,0,1,0,0,0,0,1,0,0,0,1,1,0,1,0,0
966,Haryana,Gurugram,122001,28.4595,77.0266,0,0,1,0,0,0,0,1,0,1,0,0,0,1,0,0,1,0,0,0,0,0,1
967,Haryana,Panipat,132104,29.3909,76.9635,1,0,1,0,0,0,1,0,0,1,1,0,1,0,0,0,0,1,1,0,0,0,0
968,Haryana,Gurugram,122003,28.4595,77.0266,0,0,1,0,0,0,1,1,1,1,1,1,1,0,0,1,0,0,0,0,1,0,0
969,Haryana,Ambala,134005,30.3782,76.7767,0,0,0,0,1,0,1,0,1,1,1,1,0,1,0,0,0,0,1,1,1,0,1
970,Haryana,Yamunanagar,135004,30.129,77.2674,1,0,0,1,1,0,1,1,0,1,1,0,0,0,1,1,1,1,0,1,0,0,1
971,Haryana,Yamunanagar,135005,30.129,77.2674,1,0,0,1,0,0,0,0,1,1,1,0,0,0,0,1,0,0,1,0,0,0,0
972,Haryana,Panipat,132103,29.3909,76.9635,1,0,0,1,0,1,1,0,1,1,1,0,1,1,0,0,1,1,0,1,0,1,0
973,Haryana,Faridabad,121004,28.4089,77.3178,1,1,0,1,0,0,0,1,1,0,0,0,0,1,0,1,1,1,0,1,0,1,0
974,Haryana,Ambala,134005,30.3782,76.7767,1,0,1,0,0,1,0,0,1,0,0,0,1,0,0,0,0,0,0,0,0,1,0
975,Haryana,Panipat,132107,29.3909,76.9635,0,0,0,0,1,0,0,1,0,0,1,0,1,1,1,0,1,1,1,0,0,0,1
976,Haryana,Ambala,134004,30.3782,76.7767,0,0,1,0,0,1,0,0,1,0,0,1,0,1,1,1,1,1,1,0,0,1,0
977,Haryana,Ambala,134006,30.3782,76.7767,1,0,1,1,1,1,0,0,1,0,0,1,0,1,0,1,0,0,1,0,1,1,1
978,Haryana,Panipat,132105,29.3909,76.9635,0,1,0,0,1,1,0,1,0,1,0,0,0,1,1,1,0,1,0,1,1,1,0
979,Haryana,Ambala,134004,30.3782,76.7767,1,0,0,0,1,0,1,0,0,0,0,0,1,1,1,1,0,1,0,1,0,1,1
980,Haryana,Gurugram,122001,28.4595,77.0266,0,1,1,0,0,1,1,1,0,1,1,1,0,1,1,1,0,1,0,0,1,0,1
981,Haryana,Gurugram,122003,28.4595,77.0266,1,1,1,0,0,1,0,1,0,1,1,0,0,0,0,1,0,1,1,0,0,1,0
982,Haryana,Yamunanagar,135003,30.129,77.2674,0,0,1,1,0,1,1,0,1,1,1,1,1,0,1,0,1,1,0,1,0,0,0
983,Haryana,Faridabad,121005,28.4089,77.3178,0,0,1,0,0,0,1,0,0,1,0,1,1,1,0,0,1,1,0,1,0,0,1
984,Haryana,Faridabad,121001,28.4089,77.3178,1,0,0,0,1,1,1,1,1,1,0,0,1,0,0,0,0,0,0,1,1,0,1
985,Haryana,Ambala,134003,30.3782,76.7767,1,1,1,1,1,0,0,1,1,1,0,0,0,0,1,1,0,0,1,1,0,1,0
986,Haryana,Gurugram,122005,28.4595,77.0266,0,1,0,0,0,1,0,0,1,1,0,0,1,1,0,0,1,0,1,1,0,1,1
987,Haryana,Ambala,134004,30.3782,76.7767,0,0,0,0,0,1,1,0,0,1,0,0,0,1,0,1,0,0,1,1,0,0,1
988,Haryana,Faridabad,121005,28.4089,77.3178,1,1,1,0,0,0,0,1,0,0,1,0,1,0,1,1,0,0,0,1,1,1,1
989,Haryana,Ambala,134003,30.3782,76.7767,0,1,0,1,0,0,1,1,0,1,1,1,0,0,1,0,1,0,0,0,0,1,1
990,Haryana,Gurugram,122001,28.4595,77.0266,0,0,0,0,1,1,1,0,1,0,1,0,0,0,1,1,0,0,1,1,1,0,0
991,Haryana,Gurugram,122004,28.4595,77.0266,0,1,0,0,1,0,0,1,1,1,1,1,0,0,0,1,1,1,1,0,0,0,1
992,Haryana,Ambala,134005,30.3782,76.7767,1,1,0,0,1,1,1,1,0,1,0,0,0,1,1,1,1,0,1,1,1,0,1
993,Haryana,Yamunanagar,135003,30.129,77.2674,0,1,1,1,0,0,0,1,0,1,0,1,1,0,1,0,1,0,1,0,0,1,0
994,Haryana,Yamunanagar,135003,30.129,77.2674,1,1,1,0,1,0,1,1,0,0,1,1,0,0,1,0,1,0,1,1,1,1,1
995,Haryana,Ambala,134003,30.3782,76.7767,0,0,1,0,0,0,0,1,0,1,1,0,1,1,0,0,1,1,1,0,0,0,0
996,Haryana,Faridabad,121004,28.4089,77.3178,1,1,0,0,1,1,1,1,0,1,0,0,1,0,1,0,0,0,1,1,1,1,0
997,Haryana,Faridabad,121003,28.4089,77.3178,0,1,0,0,1,1,1,0,1,1,0,0,0,1,1,0,1,0,0,0,0,0,0
998,Haryana,Ambala,134006,30.3782,76.7767,0,1,1,1,0,1,0,0,1,0,0,0,0,0,0,1,1,1,1,1,1,0,1
999,Haryana,Panipat,132103,29.3909,76.9635,0,1,1,1,1,1,0,1,0,1,1,0,0,1,1,0,1,0,1,1,1,1,0
1000,Haryana,Ambala,134003,30.3782,76.7767,0,0,0,0,1,0,0,0,0,0,0,0,1,1,1,1,0,0,1,0,0,0,1
